Name,Strasse,Strasse_no_space,PlZ,Ort,Tel,E-Mail,Webseite
A. Keller Glaserei AG,Erlenstrasse 34,Erlenstrasse34,2555,Brügg BE,032 373 15 66,info@glas-keller.ch,http://www.glas-keller.ch
elektro bilingue gmbh,Bielstrasse 75,Bielstrasse75,2555,Brügg BE,032 361 22 22,info@elektro-bilingue.ch,http://www.elektro-bilingue.ch
Muay Thai Shadow Boxing Gym,Industriestrasse 37a,Industriestrasse37a,2555,Brügg BE,079 208 94 07,Info@muaythai-shadowboxing.ch,http://www.mtsb.ch
Seeland Glaserei GmbH,Erlenstrasse 34,Erlenstrasse34,2555,Brügg BE,032 322 65 65,info@seeland-glas.ch,http://www.seeland-glas.ch
ST. EGGLI Spenglerei GmbH,Wasserstrasse 1,Wasserstrasse1,2555,Brügg BE,032 373 22 23,info@eggligmbh.ch,http://www.eggligmbh.ch
Ariatec Sàrl 24h/24,Wasserstrasse 1A,Wasserstrasse1A,2555,Brügg BE,032 341 02 02,info@ariatec.ch,http://www.ariatec.ch
Glaus & Kappeler AG,Wasserstrasse 5,Wasserstrasse5,2555,Brügg BE,032 374 77 77,info@g-k.ch,http://www.g-k.ch
JAG Jakob AG Prozesstechnik,Industriestrasse 20,Industriestrasse20,2555,Brügg BE,032 374 30 30,jagpt@jag.ch,http://www.jag.ch
mss-sport GmbH,Neubrückstrasse 13,Neubrückstrasse13,2555,Brügg BE,032 559 83 81,mss@mss-sport.ch,http://www.mss-sport.ch
Physiotherapie Brügg Gmbh,Bärletweg 8,Bärletweg8,2555,Brügg BE,032 373 55 67,info@physiotherapie-bruegg.ch,http://www.physiotherapie-bruegg.ch/68/home
Schori Malerei AG,Bielstrasse 75,Bielstrasse75,2555,Brügg BE,032 373 13 78,info@schori-malerei.ch,http://www.schori-malerei.ch
Schubi's Zügelbox GmbH,Industriestrasse 37A,Industriestrasse37A,2555,Brügg BE,076 490 95 64,axel@zuegel.ch,https://zuegel.ch
Werk-Stadt GmbH,Portstrasse 37,Portstrasse37,2555,Brügg BE,032 377 33 79,info@werk-stadt.ch,http://www.werk-stadt.ch
Stebatec AG,Mattenstrasse 6A,Mattenstrasse6A,2555,Brügg BE,032 321 75 55,info@stebatec.ch,http://www.stebatec.ch
Coiffure Diamond Hair,Erlenstrasse 40,Erlenstrasse40,2555,Brügg BE,* 032 373 27 60,,http://www.coiffure-diamondhair.ch
Eschmann M. Sicherheits- + Verschlusstechnik AG,Erlenstrasse 27,Erlenstrasse27,2555,Brügg BE,032 365 69 67,,http://www.schluessel-eschmann.ch
Flexpo AG,Mittelstrasse 2,Mittelstrasse2,2555,Brügg BE,* 032 325 19 60,info.bruegg@flexpo.ch,http://www.flexpo.ch
Muller Machines SA,Industriestrasse 22,Industriestrasse22,2555,Brügg BE,032 373 34 44,sales@mullermachines.ch,http://www.mullermachines.ch
Precisteel GmbH,Moosweg 1,Moosweg1,2555,Brügg BE,032 373 26 12,,http://www.precisteel.ch
Restaurant Bahnhof,Bahnhofstrasse 3,Bahnhofstrasse3,2555,Brügg BE,032 373 11 37,,https://www.restaurant-bahnhof-bruegg.ch
Secustore GmbH,Erlenstrasse 27,Erlenstrasse27,2555,Brügg BE,* 032 325 75 75,,http://www.secustore.ch
Hunziker Affolter AG,Wasserstrasse 8,Wasserstrasse8,2555,Brügg BE,032 497 07 77,roger.stirnemann@hunzikeraffolter.ch,http://www.hunzikeraffolter.ch
Betreutes Wohnen zum Sodbrunnen GmbH,Orpundstrasse 22,Orpundstrasse22,2555,Brügg BE,* 032 373 27 01,wohnen@sodbrunnen.ch,http://www.sodbrunnen.ch
Bettenwelt,Industriestrasse 37C,Industriestrasse37C,2555,Brügg BE,032 322 06 26,info@bettenwelt.ch,http://www.bettenwelt.ch
Holivet SA,Industriestrasse 37c,Industriestrasse37c,2555,Brügg BE,* 032 341 65 65,,http://www.holivet.ch
Hotel Restaurant Jura,Orpundstrasse 1,Orpundstrasse1,2555,Brügg BE,* 032 374 41 50,,http://www.jura-bruegg.ch
Luder Technik AG,Erlenstrasse 46,Erlenstrasse46,2555,Brügg BE,* 032 374 20 20,info@plastics.ch,http://www.plastics.ch
Notariat Horst,Bielstrasse 3,Bielstrasse3,2555,Brügg BE,* 032 373 18 24,info@notariat-horst.ch,http://www.notariat-horst.ch
Dönni René,Obergasse 4,Obergasse4,2555,Brügg BE,* 079 354 89 43,,
Elis Cleanroom (Suisse) SA,Erlenstrasse 23,Erlenstrasse23,2555,Brügg BE,032 374 35 85,ch.bruegg@elis.com,http://www.elis.com
Geiser Von Aesch Bestattungen,Obergasse 16H,Obergasse16H,2555,Brügg BE,032 373 13 74,,https://geiser-bestattungen.ch
La Montre Hermès S.A.,Erlenstrasse 31A,Erlenstrasse31A,2555,Brügg BE,* 032 545 04 00,info.LMH@hermes.com,http://www.hermes.com
Lastec AG,Mattenstrasse 6,Mattenstrasse6,2555,Brügg BE,* 032 374 41 41,info@lastec.ch,http://www.lastec.ch
Chinesische Medizin Ru GmbH,Bielstrasse 3,Bielstrasse3,2555,Brügg BE,* 032 372 70 70,,http://www.chin-med-ru.ch
Geiser Samuel,Obergasse 16H,Obergasse16H,2555,Brügg BE,032 373 13 74,,http://www.geiser-bestattungen.ch
TOI TOI AG,Bielstrasse 26,Bielstrasse26,2555,Brügg BE,0800 86 40 00,info@toitoi.ch,http://www.toitoi.ch
Coiffure D-Design,Neubrückstrasse 40,Neubrückstrasse40,2555,Brügg BE,032 525 88 09,info@coiffure-d-design.ch,
Eisbis Malerei,Wasserstrasse 1,Wasserstrasse1,2555,Brügg BE,032 331 12 31,eisbismalerei@bluewin.ch,
Emil Frey Biel,Römerstrasse 11,Römerstrasse11,2555,Brügg BE,032 374 33 33,biel@emilfrey.ch,
ESD Treuhand,Industriestrasse 37c,Industriestrasse37c,2555,Brügg BE,032 373 20 30,info@ehling.ch,
Leiser Richard,Obergasse 6,Obergasse6,2555,Brügg BE,032 373 43 46,leiser_malergeschaeft@sunrise.ch,
Qualitech AG,Industriestrasse 37,Industriestrasse37,2555,Brügg BE,062 889 69 69,qualitech@qualitech.ch,
Raada GmbH,Wasserstrasse 2,Wasserstrasse2,2555,Brügg BE,032 373 18 78,info@raada.ch,
Eddie's Cafe-Bar AG,Erlenstrasse 40,Erlenstrasse40,2555,Brügg BE,* 032 372 75 44,eduardw@bluewin.ch,
Anapol Gerätetechnik AG,Moosweg 1,Moosweg1,2555,Brügg BE,032 374 25 45,sales@anapol.ch,
ATCT,Mettgasse 6a,Mettgasse6a,2555,Brügg BE,032 373 71 01,,
Audizia AG,Erlenstrasse 27,Erlenstrasse27,2555,Brügg BE,* 032 505 32 00,,
Auto-Service Patrick Hänni AG,Erlenstrasse 50A,Erlenstrasse50A,2555,Brügg BE,* 032 331 77 27,,
Berom SA,Portstrasse 44b,Portstrasse44b,2555,Brügg BE,032 361 10 48,info@berom.ch,
Brennstein & Zägg wäg,Rainstrasse 12,Rainstrasse12,2555,Brügg BE,* 032 510 33 68,bbb@brennstein.ch,
Bureau central du contrôle des métaux précieux,Industriestrasse 37,Industriestrasse37,2555,Brügg BE,* 058 462 66 22,,
Coiffure Cathy,Bielstrasse 30,Bielstrasse30,2555,Brügg BE,032 373 14 83,,
DigiFee Informatik,Bielstrasse 13,Bielstrasse13,2555,Brügg BE,* 032 372 12 12,,
Dorfapotheke Brügg AG,Bielstrasse 12,Bielstrasse12,2555,Brügg BE,* 032 373 14 60,dorfapo.bruegg@ovan.ch,
Faltsysteme Meier Marcel Expo AG,Erlenstrasse 48,Erlenstrasse48,2555,Brügg BE,* 032 365 30 36,info@meierexpo.ch,
Flückiger Bauprojekt Partner,Rainpark 17,Rainpark17,2555,Brügg BE,* 032 372 72 80,flueckiger@bauprojekt-partner.ch,http://www.bauprojekt-partner.ch
Fuhrer Engineering AG,Bernstrasse 18,Bernstrasse18,2555,Brügg BE,* 032 342 74 42,info@fuhrer.com,
Garage Walkensteiner GmbH,Bielstrasse 14,Bielstrasse14,2555,Brügg BE,032 373 28 94,,
Geiger SA,Portstrasse 37,Portstrasse37,2555,Brügg BE,* 032 342 23 33,,
Hand4you.ch,Neubrückstrasse 11,Neubrückstrasse11,2555,Brügg BE,* 032 351 47 47,,http://hand4you.ch
Hans Zbinden AG,Erlenstrasse 40,Erlenstrasse40,2555,Brügg BE,032 373 43 11,,
Hirschi AG,Portstrasse 37,Portstrasse37,2555,Brügg BE,* 032 366 60 50,info@hirschi.com,
Im Fahr,Orpundstrasse 6,Orpundstrasse6,2555,Brügg BE,* 032 374 75 10,,
IMD AG,Industriestrasse 37A,Industriestrasse37A,2555,Brügg BE,032 366 80 66,imd@imdvista.ch,
Institut für Physiotherapieforschung,Sonnhalde 2,Sonnhalde2,2555,Brügg BE,* 076 437 36 95,ipforschung@sunrise.ch,
IPH-SPITEX-TATLI,Bielstrasse 9,Bielstrasse9,2555,Brügg BE,* 076 524 07 29,,
K. Wyss Transport AG,Wasserstrasse 4,Wasserstrasse4,2555,Brügg BE,032 366 60 80,,
Kaeslin Jacqueline,Kanalweg 4,Kanalweg4,2555,Brügg BE,* 079 544 55 21,,
Keramikatelier H & S,Obergasse 7,Obergasse7,2555,Brügg BE,032 373 48 28,,
Ladenbau Meier Marcel Expo AG,Erlenstrasse 48,Erlenstrasse48,2555,Brügg BE,* 032 365 30 36,info@meierexpo.ch,
Meier Marcel Expo AG,Erlenstrasse 48,Erlenstrasse48,2555,Brügg BE,* 032 365 30 33,info@meierexpo.ch,
Meier Marcel Expo AG,Erlenstrasse 48,Erlenstrasse48,2555,Brügg BE,* 032 365 30 36,,
Mennoniten Gemeinde Brügg,Poststrasse 3,Poststrasse3,2555,Brügg BE,* 032 373 45 55,,
Möschler Zweiräder,Hauptstrasse 18,Hauptstrasse18,2555,Brügg BE,* 032 373 11 71,,
Pendolino Blumen GmbH,Bahnhofstrasse 1,Bahnhofstrasse1,2555,Brügg BE,032 373 70 50,,http://www.pendolinoblumen.ch
Persag AG,Erlenstrasse 44,Erlenstrasse44,2555,Brügg BE,032 323 22 73,info@persag.ch,
Peter Rolf,Erlenstrasse 15,Erlenstrasse15,2555,Brügg BE,* 032 373 71 91,,
Polizeiwache Brügg,Hauptstrasse 16,Hauptstrasse16,2555,Brügg BE,031 638 88 10,,
Praxis für Alternativmedizin Wyss Esther Maria,Mettgasse 2,Mettgasse2,2555,Brügg BE,* 079 215 90 12,esther.wyss@live.de,
Praxis für Ergotherapie Kaeslin Jacqueline (-Stöckli),Kanalweg 4,Kanalweg4,2555,Brügg BE,* 079 544 55 21,,
Restaurant Pizzeria Al Ponte,Bielstrasse 14,Bielstrasse14,2555,Brügg BE,* 032 372 14 14,,
Rockinger-Anhängerkupplungen,Portstrasse 37,Portstrasse37,2555,Brügg BE,* 032 366 60 50,info@hirschi.com,
Rösli Heidi,Orpundstrasse 30a,Orpundstrasse30a,2555,Brügg BE,* 032 372 15 20,,
Schneider Werner,Orpundstrasse 13,Orpundstrasse13,2555,Brügg BE,* 032 373 11 64,,
Schriften/Siebdruck Meier Marcel Expo AG,Erlenstrasse 48,Erlenstrasse48,2555,Brügg BE,* 032 365 30 33,info@meierexpo.ch,
SDI GmbH,Mattenstrasse 11,Mattenstrasse11,2555,Brügg BE,032 374 77 00,info@sdigmbh.ch,
Sunflower Wellness und Kosmetikstudio,Mettgasse 8,Mettgasse8,2555,Brügg BE,* 079 819 37 40,sunflower-kosmetik@hotmail.com,
Syphon AG,Römerstrasse 7,Römerstrasse7,2555,Brügg BE,* 032 365 42 20,,
Taxi Schnider,Bärletweg 5,Bärletweg5,2555,Brügg BE,* 079 177 70 07,schnider.juerg@gmail.com,
TUI,Erlenstrasse 40,Erlenstrasse40,2555,Brügg BE,032 373 53 54,bruegg@tui.ch,
UBS Switzerland AG,Bahnhofstrasse 2,Bahnhofstrasse2,2555,Brügg BE,* 032 374 42 11,,
Uhrenreparaturen Express Service,Erlenstrasse 40,Erlenstrasse40,2555,Brügg BE,* 032 372 76 56,muccia@sunrise.ch,
"Voluma, Exissimo, Meroform Meier Marcel Expo AG",Erlenstrasse 48,Erlenstrasse48,2555,Brügg BE,* 032 365 30 36,info@meierexpo.ch,
Weber Elsbeth,Ahornweg 6,Ahornweg6,2555,Brügg BE,* 079 487 66 04,e-weber@bluewin.ch,
Wyss K. Transport AG,Wasserstrasse 4,Wasserstrasse4,2555,Brügg BE,032 366 60 80,,
Zentralamt für Edelmetallkontrolle,Industriestrasse 37,Industriestrasse37,2555,Brügg BE,* 058 462 66 22,,
Cafe Pikolo,Bielstrasse 1,Bielstrasse1,2555,Brügg BE,032 525 50 55,cafepikolo@outlook.com,
IMMOZENITH GmbH,Bernstrasse 18,Bernstrasse18,2555,Brügg BE,032 333 33 37,info@immozenith.ch,
Gemeindeschreiberei Einwohner- u. Fremdenkontrolle Ortspolizei Stimmregister,Mettgasse 1,Mettgasse1,2555,Brügg BE,* 032 374 25 74,,
Schulsekretariat,Bärletweg 9,Bärletweg9,2555,Brügg BE,* 032 373 47 18,,
Bärlet I Oberstufe,Bärletweg 9,Bärletweg9,2555,Brügg BE,* 032 373 26 41,,
Bärlet II Unter- und Mittelstufe,Bärletweg 11,Bärletweg11,2555,Brügg BE,* 032 373 72 51,,
Werkhof,Industriestrasse 1,Industriestrasse1,2555,Brügg BE,032 373 10 22,,
Fachstelle für Altersfragen,Hauptstrasse 19,Hauptstrasse19,2555,Brügg BE,* 032 372 18 28,,
Kanalschulhaus,Kanalweg 24,Kanalweg24,2555,Brügg BE,* 032 373 13 40,,
Elektrizitätsversorgung,Obergasse 26,Obergasse26,2555,Brügg BE,* 032 373 46 48,,
Tagesschule Brügg,Bärletweg 9,Bärletweg9,2555,Brügg BE,* 079 224 26 41,,
Schulsozialarbeit,Bärletweg 9,Bärletweg9,2555,Brügg BE,* 079 238 79 40,,
Aula Unterstufe,Bärletweg 13,Bärletweg13,2555,Brügg BE,* 032 373 65 91,,
Jugendarbeit Soziokulturelle Animation,Hauptstrasse 19,Hauptstrasse19,2555,Brügg BE,032 373 57 31,,
Kindertagesstätte Kinderchalet Pfeid,Pfeidstrasse 24,Pfeidstrasse24,2555,Brügg BE,032 373 30 45,,
Feuerwehr/Feueraufsicht,Industriestrasse 1,Industriestrasse1,2555,Brügg BE,* 118,,
A. Keller Vitrerie SA,Erlenstrasse 34,Erlenstrasse34,2555,Brügg BE,* 032 373 15 66,,
Acushnet GmbH,Bernstrasse 18,Bernstrasse18,2555,Brügg BE,* 032 397 22 35,,
Adria Mobil Schweiz GmbH,Erlenstrasse 27,Erlenstrasse27,2555,Brügg BE,* 032 374 41 00,info@adria-mobil.ch,
afa SA,Portstrasse 35,Portstrasse35,2555,Brügg BE,* 032 366 54 80,info@afateam.ch,
Agemo SA,Bernstrasse 18,Bernstrasse18,2555,Brügg BE,032 365 03 60,,
ALL-TAX Treuhand Feldmann,Erlenstrasse 27,Erlenstrasse27,2555,Brügg BE,032 366 86 96,,
AMAG Automobil- und Motoren AG Biel,Römerstrasse 16,Römerstrasse16,2555,Brügg BE,* 032 366 51 80,,
Anapol Klimatechnik AG,Moosweg 1,Moosweg1,2555,Brügg BE,032 374 25 45,,
Andreoli Pius,Römerstrasse 19,Römerstrasse19,2555,Brügg BE,* 032 397 18 16,,
Anton Zanker,Neubrückstrasse 24,Neubrückstrasse24,2555,Brügg BE,* 032 372 73 54,,
AP-InTec Sàrl,Industriestrasse 37A,Industriestrasse37A,2555,Brügg BE,* 032 372 13 13,info@ap-intec.ch,
apropos büro GmbH,Bernstrasse 18,Bernstrasse18,2555,Brügg BE,* 032 373 61 30,blunier@aproposbuero.ch,
ARA Region Biel AG,Portstrasse 40,Portstrasse40,2503,Biel/Bienne,* 032 366 50 70,info@mueve.ch,
ARC Nettoyage Sàrl,Bahnhofstrasse 4,Bahnhofstrasse4,2555,Brügg BE,078 907 43 36,info@arc-nettoyage.ch,
Arn & Hess AG,Erlenstrasse 27,Erlenstrasse27,2555,Brügg BE,* 032 329 50 50,,
ASCO Numatics GmbH,Erlenstrasse 27,Erlenstrasse27,2555,Brügg BE,032 374 45 10,info.swiss@emerson.com,
AUTOTEK RIZZO,Industriestrasse 37,Industriestrasse37,2555,Brügg BE,032 372 21 69,,
avservice.ch,Friedhofweg 12,Friedhofweg12,2555,Brügg BE,* 032 373 58 53,contact@avservice.ch,
AZ Logistics,Bernstrasse 18,Bernstrasse18,2555,Brügg BE,* 032 365 37 02,,
Bau-Top 2001 GmbH,Bielstrasse 4,Bielstrasse4,2555,Brügg BE,* 078 794 81 71,,
BAUMGARTNER MARK,Bielstrasse 75,Bielstrasse75,2555,Brügg BE,* 032 396 56 06,info@baumgartner-werbung.ch,
Bertolotti Architektur AG,Hauptstrasse 1,Hauptstrasse1,2555,Brügg BE,* 032 373 54 57,bertolottiarchitekturag@bluewin.ch,
Bertrams-Sabu AG,Römerstrasse 7,Römerstrasse7,2555,Brügg BE,061 763 10 60,verkauf@bertrams-sabu.ch,
Betreutes Wohnen Zum Sodbrunnen,Orpundstrasse 22,Orpundstrasse22,2555,Brügg BE,* 032 373 27 87,,
Biella Büromaterial,Erlenstrasse 44,Erlenstrasse44,2555,Brügg BE,* 032 366 33 33,info@biella.ch,
Biella SimplyFind AG,Erlenstrasse 44,Erlenstrasse44,2555,Brügg BE,* 032 552 19 00,info@simplyfind.com,
Bijou les Boutiques,Römerstrasse,Römerstrasse,2555,Brügg BE,* 032 373 55 84,bruegg@bijoulesboutiques.ch,
Blatti Bodenbeläge,Bielstrasse 67,Bielstrasse67,2555,Brügg BE,* 079 653 39 71,info@blatti-bodenbelaege.ch,
Bodega 25,Hauptstrasse 14,Hauptstrasse14,2555,Brügg BE,* 032 372 70 80,,
BRM DESIGN AG,Mittelstrasse 2,Mittelstrasse2,2555,Brügg BE,032 365 53 30,mail@brm.ch,
Bruderer Ernst,Poststrasse 9,Poststrasse9,2555,Brügg BE,* 032 373 15 52,,
Bruderer-Nikles AG,Poststrasse 9,Poststrasse9,2555,Brügg BE,* 032 373 15 52,,
Brügg Garage GmbH,Mattenstrasse 5,Mattenstrasse5,2555,Brügg BE,* 032 372 11 11,,
Brustolin AG,Römerstrasse 17,Römerstrasse17,2555,Brügg BE,* 032 365 64 66,info@pneu-brustolin.com,
Bührer & Co. AG,Römerstrasse 15,Römerstrasse15,2555,Brügg BE,* 032 365 50 05,,
Café-Bar Neubrück,Pfeidstrasse 29,Pfeidstrasse29,2555,Brügg BE,* 032 365 88 25,,
Carrosserie,Römerstrasse 19,Römerstrasse19,2555,Brügg BE,* 032 397 18 16,,
Carrosserie Rucci's Sarl,Erlenstrasse 32A,Erlenstrasse32A,2555,Brügg BE,* 032 373 68 55,,
Cemex Research Group AG,Römerstrasse 13,Römerstrasse13,2555,Brügg BE,032 366 78 00,,
Centre Auto,Erlenstrasse 32A,Erlenstrasse32A,2555,Brügg BE,* 032 331 56 56,,
Centre Brügg,Erlenstrasse 40,Erlenstrasse40,2555,Brügg BE,* 058 567 38 00,info@centrebruegg.ch,
Coiffeur 1908,Hauptstrasse 20,Hauptstrasse20,2555,Brügg BE,* 032 373 12 44,,
Contelec AG,Portstrasse 38,Portstrasse38,2503,Biel/Bienne,* 032 366 56 00,,
Denner AG,Erlenstrasse 40,Erlenstrasse40,2555,Brügg BE,* 058 999 03 45,,
Di Benedetto & Quazza GmbH,Hauptstrasse 22,Hauptstrasse22,2555,Brügg BE,* 078 819 56 86,vittoria.benedetto@evard.ch,
Dieter Witschi GmbH,Prateiweg 1,Prateiweg1,2555,Brügg BE,* 032 341 27 73,,
Dive School Lakeland,Bernstrasse 18,Bernstrasse18,2555,Brügg BE,* 079 372 38 14,,
DMG Armaturen GmbH,Erlenstrasse 2A,Erlenstrasse2A,2555,Brügg BE,* 032 373 28 38,info@dmg-armaturen.ch,
Do It + Garden Centre Brügg,Erlenstrasse 40,Erlenstrasse40,2555,Brügg BE,058 567 38 70,,
Doncev Treuhand AG,Erlenstrasse 44,Erlenstrasse44,2555,Brügg BE,* 032 322 99 67,info@doncev-treuhand.ch,
Dosenbach + Sport,Erlenstrasse 40,Erlenstrasse40,2555,Brügg BE,* 032 372 72 26,,
Drivetek AG,Industriestrasse 37,Industriestrasse37,2555,Brügg BE,* 032 332 79 32,info@drivetek.ch,
EasyCode-IT AG,Erlenstrasse 27,Erlenstrasse27,2555,Brügg BE,* 032 511 48 22,info@easycode-it.com,
EasySystems GmbH,Erlenstrasse 27,Erlenstrasse27,2555,Brügg BE,032 343 36 20,info@easysystems.ch,
EGS Sécurité SA,Neubrückstrasse 11,Neubrückstrasse11,2555,Brügg BE,* 0842 642 642,vente@egs.ch,
Electro-Müller AG/SA,Industriestrasse 25,Industriestrasse25,2555,Brügg BE,* 032 344 10 10,info@electro-mueller.ch,
Elégance Canine Dany's Dany Doffey,Friedhofweg 2,Friedhofweg2,2555,Brügg BE,* 032 341 04 89,,
Elkom Elektroinstallationen GmbH,Erlenstrasse 48,Erlenstrasse48,2555,Brügg BE,* 032 333 15 85,,
Evard Antennenbau AG,Wasserstrasse 8,Wasserstrasse8,2555,Brügg BE,* 032 373 12 14,info@evard.ch,
Evard Radio Television GmbH,Wasserstrasse 8,Wasserstrasse8,2555,Brügg BE,032 373 12 12,,
F. Tellenbach,Orpundstrasse 4,Orpundstrasse4,2555,Brügg BE,077 435 13 60,,
Franz Wyss AG Brügg,Pfeidstrasse 5,Pfeidstrasse5,2555,Brügg BE,* 079 250 23 25,franzwyss@solnet.ch,
FUJI ELECTRIC EUROPE GMBH,Industriestrasse 20A,Industriestrasse20A,2555,Brügg BE,* 032 325 11 55,,
Fusspflegestudio,Erlenstrasse 2,Erlenstrasse2,2555,Brügg BE,* 077 473 18 14,,
Galati Consulting,Wasserstrasse 4,Wasserstrasse4,2555,Brügg BE,* 032 372 12 80,,
Garage Antener GmbH,Erlenstrasse 29,Erlenstrasse29,2555,Brügg BE,* 032 342 32 71,info@garage-antener.ch,
Gemeindeverwaltung Brügg,Pfeideck 5,Pfeideck5,2555,Brügg BE,032 373 31 45,,
Gerber Coaching,Erlenstrasse 44,Erlenstrasse44,2555,Brügg BE,* 076 701 37 77,,
Gerber Coaching,Erlenstrasse 44,Erlenstrasse44,2555,Brügg BE,* 076 701 37 77,,
GFB Joachim Flückiger GmbH,Erlenstrasse 27,Erlenstrasse27,2555,Brügg BE,* 032 366 86 30,info@g-f-b.ch,
"Glaus AG, elektronische Unternehmung",Sonnhalde 3,Sonnhalde3,2555,Brügg BE,* 032 372 20 30,,
Goldschmitt Schweiz GmbH,Erlenstrasse 29,Erlenstrasse29,2555,Brügg BE,062 923 45 12,,
Googplace GmbH,Erlenstrasse 44,Erlenstrasse44,2555,Brügg BE,032 333 33 20,,
Gorba AG,Erlenstrasse 35A,Erlenstrasse35A,2555,Brügg BE,032 374 74 80,,
Gotzmann Photography,Ahornweg 7,Ahornweg7,2555,Brügg BE,* 076 559 00 95,,
Grünert Rüdiger H.,Mattenstrasse 13,Mattenstrasse13,2555,Brügg BE,* 032 385 28 01,,
GS Film-Studio,Waldeckstrasse 7,Waldeckstrasse7,2555,Brügg BE,* 032 373 59 53,info@gs-filmstudio.ch,
GTT Tool Technology,Haldenstrasse 26,Haldenstrasse26,2555,Brügg BE,032 373 51 32,,
H & M Hennes & Mauritz SA,Erlenstrasse 40,Erlenstrasse40,2555,Brügg BE,* 0800 66 55 90,,
Hartmann Fritz AG,Wasserstrasse 10A,Wasserstrasse10A,2555,Brügg BE,032 373 50 30,info@fritz-hartmann-ag.ch,
HASTEMA GmbH,Industriestrasse 20A,Industriestrasse20A,2555,Brügg BE,032 333 33 60,,
HD Biel - Brügg,Industriestrasse 37,Industriestrasse37,2555,Brügg BE,032 325 18 05,,
Helvetische Experten Gruppe,Bielstrasse 5,Bielstrasse5,2555,Brügg BE,* 032 552 01 95,info@cheg.ch,
HGX Europe Sàrl,Bernstrasse 18,Bernstrasse18,2555,Brügg BE,032 365 39 11,,
"HIBAG AG, Immobilien, Architektur- und Ingenieurplanung",Mattenstrasse 16,Mattenstrasse16,2555,Brügg BE,* 032 373 33 23,hibagbau@bluewin.ch,
Hilken International SA,Mattenstrasse 4,Mattenstrasse4,2555,Brügg BE,* 032 512 21 69,,
ifoa GmbH,Bielstrasse 75,Bielstrasse75,2555,Brügg BE,* 032 345 35 35,info@ifoa.ch,
Informationsverlag Schweiz GmbH,Bernstrasse 18,Bernstrasse18,2555,Brügg BE,* 032 501 40 00,,
Intrex-Creaktiv AG,Mattenstrasse 4,Mattenstrasse4,2555,Brügg BE,032 373 43 49,intrex@bluewin.ch,
ISOMA GMBH,Industriestrasse 37a,Industriestrasse37a,2555,Brügg BE,* 032 366 00 20,info@isoma.ch,
it5solutions.ch GmbH,Erlenstrasse 44,Erlenstrasse44,2555,Brügg BE,* 032 331 11 31,info@it5solutions.ch,
"Jacques Allemann, branch of Notz Metal Inc.",Bernstrasse 24,Bernstrasse24,2555,Brügg BE,* 032 485 15 66,info@jacques-allemann.ch,
Jessi's Pneu Shop,Römerstrasse 17,Römerstrasse17,2555,Brügg BE,* 032 365 64 66,info@pneu-brustolin.com,
JK Bauleitungen GmbH,Rainstrasse 15B,Rainstrasse15B,2555,Brügg BE,032 373 70 25,,
Joss-Kohler Architekten FH,Rainpark 19,Rainpark19,2555,Brügg BE,* 032 373 53 21,,
k kiosk,Erlenstrasse 40,Erlenstrasse40,2555,Brügg BE,032 373 64 27,,
Kek GmbH,Mettgasse 7,Mettgasse7,2555,Brügg BE,* 032 372 20 00,,
Keldan GmbH,Industriestrasse 37A,Industriestrasse37A,2555,Brügg BE,* 032 333 16 28,,
Keller Wärme & Wasser AG,Erlenstrasse 15,Erlenstrasse15,2555,Brügg BE,032 373 51 53,,
Kilchhofer Fritz,Bielstrasse 71,Bielstrasse71,2555,Brügg BE,* 032 323 23 40,,
Kindertagesstätte,Pfeidstrasse 24,Pfeidstrasse24,2555,Brügg BE,032 373 30 45,,
Kirchgemeinde Bürglen,Rosenweg 1,Rosenweg1,2555,Brügg BE,* 032 373 42 88,,
Kirchgemeinde Bürglen Verwaltung,Industriestrasse 8,Industriestrasse8,2555,Brügg BE,* 032 373 41 40,sekretariat@buerglen-be.ch,
Kletzl André,Mattenstrasse 2,Mattenstrasse2,2555,Brügg BE,032 373 33 05,,
Kling Swiss SA,Erlenstrasse 32,Erlenstrasse32,2555,Brügg BE,* 032 331 85 53,info@kling-swiss.ch,
Kochdesign GmbH,Erlenstrasse 44,Erlenstrasse44,2555,Brügg BE,* 032 333 15 75,info@kochdesign.ch,
Küpfer u. Kunz AG,Bielstrasse 79,Bielstrasse79,2555,Brügg BE,032 373 12 92,,
LB Living GmbH,Erlenstrasse 27,Erlenstrasse27,2555,Brügg BE,032 361 17 03,,
LP 24 Swiss GmbH,Grünweg 6,Grünweg6,2555,Brügg BE,* 032 373 28 14,,
MADOFF-COV SUZA,Bielstrasse 78,Bielstrasse78,2555,Brügg BE,* 079 913 38 11,,
Magitherm AG,Wasserstrasse 1a,Wasserstrasse1a,2555,Brügg BE,032 331 33 27,info@magitherm.ch,
Maisfeld Bucher & Paladino,Römerstrasse 7,Römerstrasse7,2555,Brügg BE,* 032 372 73 40,admin@maisfeld.ch,
Marché Brügg AG,Poststrasse 13,Poststrasse13,2555,Brügg BE,* 032 372 11 22,info@marchebruegg.ch,
Mécanor SA,Erlenstrasse 52,Erlenstrasse52,2555,Brügg BE,032 366 68 00,,
Medbase Apotheke Biel Brüggmoos,Erlenstrasse 40,Erlenstrasse40,2555,Brügg BE,032 373 16 71,,
Media Markt Schweiz AG,Erlenstrasse 40,Erlenstrasse40,2555,Brügg BE,* 032 374 78 78,,
melectronics Centre Brügg,Erlenstrasse 40,Erlenstrasse40,2555,Brügg BE,058 567 38 60,,
Meyer Alexander,Hauptstrasse 2,Hauptstrasse2,2555,Brügg BE,032 373 11 38,,
MG Zentrale Haustechnik GmbH,Rebhalde 22,Rebhalde22,2555,Brügg BE,* 032 372 76 66,info@mg-haustechnik.ch,
Micasa Home,Erlenstrasse 40,Erlenstrasse40,2555,Brügg BE,* 058 567 38 90,,
Migros Restaurant Centre Brügg,Erlenstrasse 40,Erlenstrasse40,2555,Brügg BE,058 567 38 50,,
Migros Supermarkt Centre Brügg MMM,Erlenstrasse 40,Erlenstrasse40,2555,Brügg BE,* 058 567 38 00,,
Mister Minit,Erlenstrasse 40,Erlenstrasse40,2555,Brügg BE,032 373 52 75,,
Möschler Franz,Hauptstrasse 18,Hauptstrasse18,2555,Brügg BE,* 032 373 11 71,,
Müller Thomas Bestattungsdienst,Industriestrasse 37C,Industriestrasse37C,2555,Brügg BE,* 031 839 00 39,,
Multiple Dimensions AG,Erlenstrasse 44,Erlenstrasse44,2555,Brügg BE,* 032 552 07 50,,
Muster Automobile GmbH,Römerstrasse 19,Römerstrasse19,2555,Brügg BE,* 032 397 18 80,musterauto@bluewin.ch,
Müve Biel-Seeland AG,Portstrasse 40,Portstrasse40,2503,Biel/Bienne,* 032 366 50 70,info@mueve.ch,
myhomejob Burri & Co.,Guinandstrasse 2,Guinandstrasse2,2555,Brügg BE,* 032 353 73 34,,
Nitronic AG,Mattenstrasse 11,Mattenstrasse11,2555,Brügg BE,* 032 373 70 70,,
Notz Metall AG,Bernstrasse 24,Bernstrasse24,2555,Brügg BE,* 032 366 75 55,,
Notz Plastics AG,Bielstrasse 75,Bielstrasse75,2555,Brügg BE,032 366 74 00,info@notz-plastics.ch,
"Oerlikon Balzers Coating SA, Brügg",Erlenstrasse 39,Erlenstrasse39,2555,Brügg BE,* 032 365 74 74,,
Optic 2000 Brügg,Erlenstrasse 40,Erlenstrasse40,2555,Brügg BE,* 032 373 33 44,services@optic2000brugg.ch,
Optos GmbH,Bernstrasse 18,Bernstrasse18,2555,Brügg BE,* 043 277 07 37,usinfo@optos.com,
Parti Evangélique (PEV),Guinandstrasse 10,Guinandstrasse10,2555,Brügg BE,021 653 39 75,romandie@evppev.ch,
Perret Handling AG,Industriestrasse 20A,Industriestrasse20A,2555,Brügg BE,* 032 366 50 30,,
Perrot AudioVision SA,Mattenstrasse 2A,Mattenstrasse2A,2555,Brügg BE,* 032 387 60 80,info@perrot-audiovision.ch,
Post Filiale 2555 Brügg BE,Bahnhofstrasse 4,Bahnhofstrasse4,2555,Brügg BE,0848 888 888,kundendienst@post.ch,
Praxis Im Fahr,Orpundstrasse 6,Orpundstrasse6,2555,Brügg BE,* 032 373 44 11,praxis.imfahr@hin.ch,
Precimation AG,Erlenstrasse 35a,Erlenstrasse35a,2555,Brügg BE,* 032 366 69 99,welcome@precimation.ch,
PRINT TECH,Bielstrasse 67,Bielstrasse67,2555,Brügg BE,032 372 12 10,,
Prometplan AG,Wasserstrasse 10A,Wasserstrasse10A,2555,Brügg BE,032 372 72 33,,
Publikation Digital Operations GmbH,Moosweg 1,Moosweg1,2555,Brügg BE,032 674 60 00,,
Pure Sports GmbH,Römerstrasse 7,Römerstrasse7,2555,Brügg BE,032 373 20 00,,
Quadro Bau Seeland AG,Industriestrasse 37A,Industriestrasse37A,2555,Brügg BE,* 032 341 99 50,,
Quadro Bau Seeland AG,Industriestrasse 37A,Industriestrasse37A,2555,Brügg BE,032 322 10 77,,
Rasta-Storen GmbH,Mattenstrasse 5,Mattenstrasse5,2555,Brügg BE,* 032 322 98 30,info@rastastoren.ch,
Rawyler,Hauptstrasse 21,Hauptstrasse21,2555,Brügg BE,* 079 475 30 72,mircorawyler@gmail.com,
Realtools SA,Industriestrasse 28,Industriestrasse28,2555,Brügg BE,032 374 40 10,info@realtools.ch,
Reno Schuh AG,Erlenstrasse 40,Erlenstrasse40,2555,Brügg BE,* 032 373 20 27,,
REVIVE Conversions SA,Wasserstrasse 5,Wasserstrasse5,2555,Brügg BE,032 322 55 22,,
Sacom AG,Erlenstrasse 27,Erlenstrasse27,2555,Brügg BE,* 032 366 85 85,mail@sacom.ch,
Sanare Heizungs AG,Industriestrasse 37c,Industriestrasse37c,2555,Brügg BE,* 032 373 64 66,,
Saphirwerk AG,Erlenstrasse 36,Erlenstrasse36,2555,Brügg BE,* 032 374 25 85,info@saphirwerk.com,
Schär Grünpflege GmbH,Chaletweg 6,Chaletweg6,2555,Brügg BE,* 079 945 39 72,schaergruenpflege@bluewin.ch,
Sejdaj Transporte,Industriestrasse 37,Industriestrasse37,2555,Brügg BE,* 032 373 58 31,,
Siam Take-Away,Bärletweg 2,Bärletweg2,2555,Brügg BE,* 079 695 44 21,,
Spielgruppe Musigdösli,Erlenstrasse 11,Erlenstrasse11,2555,Brügg BE,* 032 508 10 22,,
SportXX Centre Brügg,Erlenstrasse 40,Erlenstrasse40,2555,Brügg BE,058 567 39 20,,
Streamline AG,Mattenstrasse 6,Mattenstrasse6,2555,Brügg BE,* 032 358 00 58,info@streamlineag.ch,
SUPERSCRIPT GmbH,Haldenstrasse 31,Haldenstrasse31,2555,Brügg BE,* 076 307 89 45,,
SVAG Schweizer Vermögensberatung Aktiengesellschaft,Erlenstrasse 44,Erlenstrasse44,2555,Brügg BE,* 078 730 49 34,,
Technomag AG,Wasserstrasse 7,Wasserstrasse7,2555,Brügg BE,* 032 366 90 10,,
Tennis & Squash Längmatten AG Brügg,Industriestrasse 18,Industriestrasse18,2555,Brügg BE,* 032 373 17 47,,
Termitime Sàrl,Mattenstrasse 6,Mattenstrasse6,2555,Brügg BE,032 845 04 49,,
Thiriet Agemo AG,Bernstrasse 18,Bernstrasse18,2555,Brügg BE,032 365 03 60,agemo.brugg@agemo.ch,
Union GmbH Qualitätsketten,Erlenstrasse 27,Erlenstrasse27,2555,Brügg BE,* 032 341 27 25,sales@kettenunion.ch,
VFM Machines SA,Industriestrasse 22,Industriestrasse22,2555,Brügg BE,032 374 35 45,,
Viatte Peter,Erlenstrasse 27,Erlenstrasse27,2555,Brügg BE,* 032 331 20 06,,
Vircosy AG,Römerstrasse 7,Römerstrasse7,2555,Brügg BE,032 511 11 55,,
Viret Architectes SA,Wasserstrasse 1A,Wasserstrasse1A,2555,Brügg BE,* 032 365 56 13,,
Vitrerie Seeland Sàrl,Wasserstrasse 10A,Wasserstrasse10A,2555,Brügg BE,* 032 322 65 65,info@seeland-glas.ch,
VOI Migros Partner Brügg BE,Hauptstrasse 17,Hauptstrasse17,2555,Brügg BE,058 567 47 00,,
VR Autotechnik AG,Römerstrasse 19,Römerstrasse19,2555,Brügg BE,032 530 52 04,,
WMR Mira AG,Industriestrasse 20A,Industriestrasse20A,2555,Brügg BE,* 032 341 52 10,,
Zi+SANAmed gembh,Bernstrasse 18,Bernstrasse18,2555,Brügg BE,032 331 20 20,,
Abbühl Manfred und Katharina (-Beutler),Neubrückstrasse 24,Neubrückstrasse24,2555,Brügg BE,032 373 32 18,,
Abdel Rahman Ahmad,Erlenstrasse 5,Erlenstrasse5,2555,Brügg BE,032 365 48 24,,
Abedini Bajram,Bielstrasse 28A,Bielstrasse28A,2555,Brügg BE,032 372 20 93,,
Abrecht Rudolf und Nadja (-Ischer),Eschenweg 9,Eschenweg9,2555,Brügg BE,* 032 331 94 73,,
Aebersold Christian und Gaby (-Schütz),Bärletweg 8,Bärletweg8,2555,Brügg BE,032 373 16 46,,
Aebersold Elisabeth,Rebhalde 8,Rebhalde8,2555,Brügg BE,032 373 23 33,,
Aebersold Erika,Hauptstrasse 6,Hauptstrasse6,2555,Brügg BE,* 032 373 49 73,,
Aebersold Hugo u. Brigitte,Orpundstrasse 6,Orpundstrasse6,2555,Brügg BE,032 373 24 40,,
Aebersold Kurt,Friedhofweg 45,Friedhofweg45,2555,Brügg BE,032 373 37 94,,
Aebi Heinz (-Steuri),Römerstrasse 3,Römerstrasse3,2555,Brügg BE,032 373 45 65,,
Aebi Isabelle,Bielstrasse 28,Bielstrasse28,2555,Brügg BE,* 032 543 19 15,,
Aebi Rudolf,Orpundstrasse 5,Orpundstrasse5,2555,Brügg BE,032 373 22 71,,
Aebi Stefan,Aarestrasse 13,Aarestrasse13,2555,Brügg BE,032 373 33 43,,
Aebi Walter und Evelyne (-Fochi),Burgersriedstrasse 7,Burgersriedstrasse7,2555,Brügg BE,* 032 373 62 36,,
Aerni René et Brigitta,Guinandstrasse 12,Guinandstrasse12,2555,Brügg BE,032 365 80 73,,
Aeschbacher Hans,Römerstrasse 1,Römerstrasse1,2555,Brügg BE,032 373 27 46,,
Aeschlimann Eliane,Rosenweg 10,Rosenweg10,2555,Brügg BE,* 032 372 71 78,,
Affolter Jacqueline,Römerstrasse 1,Römerstrasse1,2555,Brügg BE,032 373 60 32,,
Ahmic Ramic Behija,Guinandstrasse 18,Guinandstrasse18,2555,Brügg BE,032 341 30 57,,
Aiyampillai Manivannan,Bielstrasse 57,Bielstrasse57,2555,Brügg BE,* 032 373 42 38,,
Alic Bahrudin,Brachmattstrasse 7,Brachmattstrasse7,2555,Brügg BE,* 032 372 78 61,,
Allenbach Stephan,Aarestrasse 9,Aarestrasse9,2555,Brügg BE,* 032 373 36 08,s.allenbach@bluewin.ch,
Altmann Michael,Aarestrasse 11,Aarestrasse11,2555,Brügg BE,032 372 16 49,,
Altorfer Stefan und Anja,Eschenweg 10,Eschenweg10,2555,Brügg BE,* 032 373 56 13,,
Amann Marlis,Guinandstrasse 4,Guinandstrasse4,2555,Brügg BE,* 079 705 10 56,,
Ambühl Adrian,Mattenstrasse 14,Mattenstrasse14,2555,Brügg BE,* 032 505 21 14,,
Ammann Georges und Silvia (-Huber),Sandacker 4,Sandacker4,2555,Brügg BE,* 032 373 72 57,,
Ammon Erich und Margrit (-Schneider),Orpundstrasse 28,Orpundstrasse28,2555,Brügg BE,032 373 14 41,,
Ammon Patrick und Michaela (-Wyss),Rainpark 16,Rainpark16,2555,Brügg BE,* 032 322 89 50,,
Amstutz Dora et Heidi,Orpundstrasse 6,Orpundstrasse6,2555,Brügg BE,032 331 05 36,,
Antonlouisnayagam Arumugam,Neubrückstrasse 38,Neubrückstrasse38,2555,Brügg BE,* 031 514 01 75,,
Apolloni Johanna,Neubrückstrasse 17,Neubrückstrasse17,2555,Brügg BE,031 869 54 87,,
Araújo Mendes Heim Olga Cristina,Aarestrasse 13,Aarestrasse13,2555,Brügg BE,* 079 291 01 28,,
Arber Hugo und Marie-Louise (-Revaz),Brachmattstrasse 15,Brachmattstrasse15,2555,Brügg BE,* 032 373 21 61,hh.arber@bluewin.ch,
Arn Edwin,Brachmattstrasse 15,Brachmattstrasse15,2555,Brügg BE,032 373 15 26,,
Arn Kurt (-Varrin),Mettgasse 3,Mettgasse3,2555,Brügg BE,032 373 27 55,,
Arnold Nadine,Klosterstrasse 13,Klosterstrasse13,2555,Brügg BE,* 032 559 86 79,,
Arumugam Sivakumar,Grünweg 8,Grünweg8,2555,Brügg BE,* 032 372 10 04,,
Aubert Hélène,Erlenstrasse 4,Erlenstrasse4,2555,Brügg BE,021 921 11 21,,
Azzoun Mohammed Fehmy,Aarestrasse 11,Aarestrasse11,2555,Brügg BE,* 032 558 79 10,,
Bachmann Hans-Rudolf,Friedhofweg 5,Friedhofweg5,2555,Brügg BE,032 373 20 02,,
Bachmann Jan,Brachmattstrasse 11A,Brachmattstrasse11A,2555,Brügg BE,* 032 505 25 94,,
Bachmann Martine,Burgersriedstrasse 4B,Burgersriedstrasse4B,2555,Brügg BE,* 032 331 06 86,,
Bachmann Paul,Mettgasse 8,Mettgasse8,2555,Brügg BE,* 032 373 26 13,,
Bachmann Rolf,Rainstrasse 2,Rainstrasse2,2555,Brügg BE,032 373 58 32,,
Badertscher Claude,Erlenstrasse 5,Erlenstrasse5,2555,Brügg BE,* 032 373 16 19,,
Baehni Thomas und Anne Marie,Burgersriedstrasse 3,Burgersriedstrasse3,2555,Brügg BE,* 032 373 21 80,,
Baharak Sadeghi Alamdari,Bielstrasse 34,Bielstrasse34,2555,Brügg BE,032 384 18 22,,
Baillif Hanspeter,Rainstrasse 28,Rainstrasse28,2555,Brügg BE,032 373 12 72,,
Baliu Elbisana,Erlenstrasse 1,Erlenstrasse1,2555,Brügg BE,* 032 544 08 37,,
Ballestraz-Hasler Natalia,Kreuzgasse 21,Kreuzgasse21,2555,Brügg BE,* 032 341 02 34,,
Balmer Rico,Ahornweg 6,Ahornweg6,2555,Brügg BE,* 078 659 76 10,,
Bandi Walter (-Affolter),Hauptstrasse 24,Hauptstrasse24,2555,Brügg BE,032 373 39 04,,
Bangerter Erwin (-Biedermann),Römerstrasse 3,Römerstrasse3,2555,Brügg BE,032 373 23 44,,
Bangerter Heinz,Poststrasse 10,Poststrasse10,2555,Brügg BE,032 373 49 78,,
Bart Pierre-Alain,Eschenweg 4,Eschenweg4,2555,Brügg BE,* 032 373 23 50,bart@zmail.ch,
Bätscher Monika,Friedhofweg 51,Friedhofweg51,2555,Brügg BE,* 032 373 52 04,,
Battaglia Mariano,Poststrasse 7,Poststrasse7,2555,Brügg BE,032 373 17 13,,
Bauer R.,Grünweg 5,Grünweg5,2555,Brügg BE,032 373 38 62,,
Baumann Fritz (-Fuchs),Aarestrasse 11,Aarestrasse11,2555,Brügg BE,032 373 34 86,,
Baumann Margrit (-Christen),Bärletweg 5,Bärletweg5,2555,Brügg BE,032 373 20 50,,
Baumgartner Guido (-Meier),Rainpark 16,Rainpark16,2555,Brügg BE,032 373 44 76,,
Baumgartner Rosmarie,Bielstrasse 33,Bielstrasse33,2555,Brügg BE,032 373 33 30,,
Baumgartner Ursula,Bielstrasse 33,Bielstrasse33,2555,Brügg BE,032 373 37 21,,
Beatrice und Luca Krähenbühl,Friedhofweg 6,Friedhofweg6,2555,Brügg BE,* 079 819 37 40,,
Beeli Christian und Angela (-Gaus),Bielstrasse 36,Bielstrasse36,2555,Brügg BE,* 032 322 38 78,,
Beer Karl Thomas und Marion (-Meister),Rebhalde 13,Rebhalde13,2555,Brügg BE,* 031 862 19 01,,
Beller Jürgen,Mühleweg 2,Mühleweg2,2555,Brügg BE,032 331 34 22,,
Benninger Heinz,Mattenstrasse 5,Mattenstrasse5,2555,Brügg BE,* 032 373 48 16,,
Benoit Roland,Burgersriedstrasse 8,Burgersriedstrasse8,2555,Brügg BE,032 373 22 31,,
Berger Jonathan,Industriestrasse 10d,Industriestrasse10d,2555,Brügg BE,* 032 373 35 24,,
Berger Marcel,Friedhofweg 35,Friedhofweg35,2555,Brügg BE,* 032 373 66 89,berger.marcel67@bluewin.ch,
Berger Martin u. Claudia,Aarestrasse 10,Aarestrasse10,2555,Brügg BE,* 032 373 22 83,,
Berger Roland,Rosenweg 9,Rosenweg9,2555,Brügg BE,* 032 341 30 29,,
Bernard Mario Olivier,Bielstrasse 66,Bielstrasse66,2555,Brügg BE,032 372 19 08,,
Bessire Robert,Hauptstrasse 20,Hauptstrasse20,2555,Brügg BE,* 032 373 22 64,,
Beyeler Hansruedi,Neubrückstrasse 23,Neubrückstrasse23,2555,Brügg BE,032 315 20 78,,
Bhor Franziska,Industriestrasse 4B,Industriestrasse4B,2555,Brügg BE,* 032 372 12 20,,
Bianchi Carlo,Eschenweg 5,Eschenweg5,2555,Brügg BE,* 032 373 19 25,,
Bianchi Hedwig,Ahornweg 16,Ahornweg16,2555,Brügg BE,* 032 373 39 05,,
Bickel Markus,Orpundstrasse 30,Orpundstrasse30,2555,Brügg BE,* 032 373 70 73,,
Bickel Patrick und Jacqueline,Guinandstrasse 14,Guinandstrasse14,2555,Brügg BE,* 032 373 54 44,,
Bickel Urs (-Batschelet),Schulstrasse 3,Schulstrasse3,2555,Brügg BE,032 373 20 87,,
Biedermann Erich (-Lobsiger),Bielstrasse 86,Bielstrasse86,2555,Brügg BE,032 373 51 80,,
Biedermann François,Haldenstrasse 24,Haldenstrasse24,2555,Brügg BE,* 079 349 23 06,,
Biedermann Renate,Neubrückstrasse 24,Neubrückstrasse24,2555,Brügg BE,* 032 373 72 19,,
Biedermann Rosemarie (-Meier),Friedhofweg 5,Friedhofweg5,2555,Brügg BE,032 373 10 64,,
Bieri Walter,Mattenstrasse 16,Mattenstrasse16,2555,Brügg BE,* 032 373 46 73,,
Bigler Bernhard und Marta,Friedhofweg 33,Friedhofweg33,2555,Brügg BE,* 079 218 77 28,,
Bigler Ursula,Erlenstrasse 8,Erlenstrasse8,2555,Brügg BE,* 032 397 14 41,,
Bilat Ursula,Brachmattstrasse 15,Brachmattstrasse15,2555,Brügg BE,* 032 342 24 27,,
Binkert René u. Heidi,Bielstrasse 48,Bielstrasse48,2555,Brügg BE,032 373 49 28,,
Bischoff Martin und Christina (-Ramseier),Kreuzgasse 8,Kreuzgasse8,2555,Brügg BE,* 032 372 73 29,,
Bissat Théo (-Walther),Pfeideck 4,Pfeideck4,2555,Brügg BE,032 373 48 68,,
Blank Therese (-Gäumann),Sonnhalde 2,Sonnhalde2,2555,Brügg BE,* 078 851 55 41,,
Blaser Margrit,Hauptstrasse 8,Hauptstrasse8,2555,Brügg BE,032 373 16 32,,
Blaser Patrick (-Da Silva),Gartenweg 1,Gartenweg1,2555,Brügg BE,032 373 23 43,,
Blindenbacher Florian,Friedhofweg 3,Friedhofweg3,2555,Brügg BE,* 032 372 16 10,,
Blunier Markus,Friedhofweg 3,Friedhofweg3,2555,Brügg BE,* 032 373 12 34,,
Blunier Max,Kreuzgasse 8,Kreuzgasse8,2555,Brügg BE,032 373 39 26,,
Boder Evelyne,Brachmattstrasse 23,Brachmattstrasse23,2555,Brügg BE,032 373 68 06,,
Boesch Gertrud,Orpundstrasse 6,Orpundstrasse6,2555,Brügg BE,* 032 365 43 13,,
Bögli Hans-Peter (-Scheidegger),Obergasse 5,Obergasse5,2555,Brügg BE,* 032 373 46 70,,
Bogni Jean-Pierre (-Spiess),Waldeckstrasse 1,Waldeckstrasse1,2555,Brügg BE,* 032 373 18 17,,
Bohli Hansueli,Industriestrasse 3,Industriestrasse3,2555,Brügg BE,* 032 373 50 58,,
Bohren Andrea (-Hafen),Rebhalde 5,Rebhalde5,2555,Brügg BE,032 373 62 54,,
Boillat André,Neubrückstrasse 24,Neubrückstrasse24,2555,Brügg BE,032 372 17 64,,
Boinay Jean-Pierre (-Annoni),Burgersriedstrasse 27,Burgersriedstrasse27,2555,Brügg BE,032 373 38 89,,
Boldini-Steck Marco und Käthi,Mettgasse 12,Mettgasse12,2555,Brügg BE,032 373 16 40,,
Borne Daniel et Iryna,Mattenstrasse 14,Mattenstrasse14,2555,Brügg BE,* 032 466 38 83,,
Boss Katharina,Mattenstrasse 12,Mattenstrasse12,2555,Brügg BE,* 032 365 53 01,,
Bosshard Peter,Mattenstrasse 14,Mattenstrasse14,2555,Brügg BE,032 373 43 20,,
Bouduban Alexandre,Brachmattstrasse 17,Brachmattstrasse17,2555,Brügg BE,032 373 51 36,,
Bourquin Karin,Aarestrasse 17,Aarestrasse17,2555,Brügg BE,032 373 49 15,,
Braillard François,Aarestrasse 13,Aarestrasse13,2555,Brügg BE,* 032 373 25 63,,
Bramato Alfredo (-Nägeli),Aarestrasse 8,Aarestrasse8,2555,Brügg BE,032 373 56 75,,
Brassel Hans Peter,Friedhofweg 4,Friedhofweg4,2555,Brügg BE,* 032 373 48 74,,
Brawand Christian und Sandra (-Sahli),Waldeckstrasse 2,Waldeckstrasse2,2555,Brügg BE,* 032 373 12 03,,
Brawand Peter u. Brigitte (-Riesen),Brachmattstrasse 10,Brachmattstrasse10,2555,Brügg BE,032 373 28 39,,
Brenner Andrea,Kanalweg 18,Kanalweg18,2555,Brügg BE,* 032 373 44 85,,
Bron Benjamin et Gosteli Odile,Mattenstrasse 12,Mattenstrasse12,2555,Brügg BE,* 032 372 71 88,,
Brönnimann Heinz (-Stampfli),Brachmattstrasse 11b,Brachmattstrasse11b,2555,Brügg BE,* 032 373 73 07,,
Brönnimann Markus,Haldenstrasse 22,Haldenstrasse22,2555,Brügg BE,032 373 26 67,,
Brossard Jean-Jacques,Pfeidstrasse 7,Pfeidstrasse7,2555,Brügg BE,* 032 373 41 80,,
Brotschi Fredy,Erlenstrasse 1,Erlenstrasse1,2555,Brügg BE,032 373 48 79,,
Brotschi Heinz,Bielstrasse 28B,Bielstrasse28B,2555,Brügg BE,032 373 35 76,,
Brunner Eduard,Friedhofweg 6,Friedhofweg6,2555,Brügg BE,* 079 352 60 30,,
Brunner Erwin (-Fuhrer),Brachmattstrasse 6,Brachmattstrasse6,2555,Brügg BE,032 373 32 75,,
Bucher Magdalena,Friedhofweg 25,Friedhofweg25,2555,Brügg BE,* 032 373 30 62,,
Bucher Manfred,Kanalweg 16,Kanalweg16,2555,Brügg BE,* 032 373 50 79,,
Buchli Urs und Barbara,Hauptstrasse 3,Hauptstrasse3,2555,Brügg BE,* 078 890 24 99,,
Bühler Ernst und Ge (-Kocher),Orpundstrasse 27A,Orpundstrasse27A,2555,Brügg BE,032 373 28 07,,
Buntschu René,Pfeidstrasse 18,Pfeidstrasse18,2555,Brügg BE,032 373 38 27,,
Burgermeister Hansruedi,Prateiweg 3,Prateiweg3,2555,Brügg BE,* 032 355 19 48,,
Bürgi Beat,Dahlienweg 4,Dahlienweg4,2555,Brügg BE,032 685 57 70,,
Bürgi Silvia Agnes,Neubrückstrasse 15,Neubrückstrasse15,2555,Brügg BE,* 032 373 40 63,,
Bürgy Therese,Neubrückstrasse 19,Neubrückstrasse19,2555,Brügg BE,032 373 47 08,,
Buri Walter (-Läng),Brachmattstrasse 1,Brachmattstrasse1,2555,Brügg BE,032 373 19 23,,
Burkhalter André,Erlenstrasse 4,Erlenstrasse4,2555,Brügg BE,* 032 372 78 73,,
Burkhalter Hans und Elisabeth (-Glauser),Erlenstrasse 4,Erlenstrasse4,2555,Brügg BE,* 032 373 22 30,,
Burkhalter Rudolf (-Christinat),Erlenstrasse 5,Erlenstrasse5,2555,Brügg BE,* 032 373 24 83,,
Burn Anton,Brachmattstrasse 11a,Brachmattstrasse11a,2555,Brügg BE,* 032 373 51 04,,
Burri Brigitte,Obergasse 7,Obergasse7,2555,Brügg BE,* 032 373 34 53,,
Burri Helena (-Eggli),Obergasse 7,Obergasse7,2555,Brügg BE,* 032 373 12 62,,
Burri Stephan und Felisa,Guinandstrasse 2,Guinandstrasse2,2555,Brügg BE,* 032 353 73 33,,
Bussinger Heinz (-Glanzmann),Mattenstrasse 18,Mattenstrasse18,2555,Brügg BE,* 032 373 44 19,,
Cafici Paolo,Bielstrasse 32,Bielstrasse32,2555,Brügg BE,* 032 372 19 79,,
Calame Denise,Aarestrasse 11,Aarestrasse11,2555,Brügg BE,* 032 373 43 18,,
Cannistraci Giuseppe,Obergasse 25,Obergasse25,2555,Brügg BE,032 373 40 55,,
Capezio Maria Gerarda,Guinandstrasse 4,Guinandstrasse4,2555,Brügg BE,* 032 365 47 89,,
Capol Reto u. Elisabeth (-Kocher),Prateiweg 1,Prateiweg1,2555,Brügg BE,* 032 355 21 35,,
Carrera Jean-Michel,Rainstrasse 24,Rainstrasse24,2555,Brügg BE,032 373 14 08,,
Cavin Daniel (-Cavin),Brachmattstrasse 27,Brachmattstrasse27,2555,Brügg BE,* 032 373 39 48,,
Cerny Daniel,Hauptstrasse 10,Hauptstrasse10,2555,Brügg BE,* 032 373 63 39,,
Chalbia Marianna,Neubrückstrasse 21,Neubrückstrasse21,2555,Brügg BE,032 373 72 83,,
Chavaillaz Willi und Binia (-von Gunten),Kanalweg 6,Kanalweg6,2555,Brügg BE,032 322 36 12,,
Chédel Olivia,Mattenstrasse 12,Mattenstrasse12,2555,Brügg BE,* 032 373 28 82,,
Chevalier David,Obergasse 16A,Obergasse16A,2555,Brügg BE,032 341 74 92,,
Chiaporri Heidi,Kanalweg 2,Kanalweg2,2555,Brügg BE,032 373 73 46,,
Choquard André und Liliane (-Berger),Burgersriedstrasse 9,Burgersriedstrasse9,2555,Brügg BE,* 032 373 56 42,,
Choquard Fabienne,Haldenstrasse 31A,Haldenstrasse31A,2555,Brügg BE,032 331 67 68,,
Christen Roland,Pfeidstrasse 12,Pfeidstrasse12,2555,Brügg BE,* 032 373 17 31,,
Christinat Susanne Heidi,Aarestrasse 11,Aarestrasse11,2555,Brügg BE,* 032 373 41 86,,
Coati Luciano,Bielstrasse 61B,Bielstrasse61B,2555,Brügg BE,* 033 650 92 23,,
Coban Hanna (-Cotting),Römerstrasse 3,Römerstrasse3,2555,Brügg BE,032 373 29 50,,
Coelho Dos Santos Rocha Monica Paula,Grünweg 6,Grünweg6,2555,Brügg BE,032 372 70 60,,
Conus Doris,Bielstrasse 49b,Bielstrasse49b,2555,Brügg BE,032 373 29 39,,
Conzatti Bruno,Gottstattstrasse 5,Gottstattstrasse5,2555,Brügg BE,* 032 331 65 92,,
Conzatti Michela,Neubrückstrasse 19,Neubrückstrasse19,2555,Brügg BE,032 373 47 83,,
Cox Marianne (-Erlacher),Mattenstrasse 18,Mattenstrasse18,2555,Brügg BE,* 032 372 18 89,,
Cultrera Sonya,Römerstrasse 1,Römerstrasse1,2555,Brügg BE,032 365 49 92,,
Curty Cédric und Julia (-Schwentesius),Haldenstrasse 31,Haldenstrasse31,2555,Brügg BE,* 032 492 18 44,,
Cutraro Antonio u. Giusppina (-Iannizotto),Waldeckstrasse 13,Waldeckstrasse13,2555,Brügg BE,032 373 41 56,,
Dähler Verena (-Althaus),Bielstrasse 12,Bielstrasse12,2555,Brügg BE,* 032 373 23 38,,
Dahoun Bendaoud Cherif,Erlenstrasse 1,Erlenstrasse1,2555,Brügg BE,* 032 322 67 74,,
Dardel Bruno (-Conrad),Industriestrasse 4A,Industriestrasse4A,2555,Brügg BE,032 373 26 59,,
Dasen Trudy (-Brand),Orpundstrasse 6,Orpundstrasse6,2555,Brügg BE,* 032 373 33 66,,
De Benedetto Ettore,Bielstrasse 28a,Bielstrasse28a,2555,Brügg BE,* 032 372 21 18,,
De Blasi Annemarie (-Schneider),Bielstrasse 34,Bielstrasse34,2555,Brügg BE,032 373 31 69,,
de Bros Martial und Isabelle,Haldenstrasse 20A,Haldenstrasse20A,2555,Brügg BE,* 032 322 70 06,,
De Falcis Marco,Pfeideck 2,Pfeideck2,2555,Brügg BE,* 032 373 50 66,,
De Falcis Silvia Marguerithe,Pfeideck 2,Pfeideck2,2555,Brügg BE,* 032 373 10 59,,
de Sá Gregorio K.R.,Rosenweg 3,Rosenweg3,2555,Brügg BE,* 032 373 26 17,,
Delaquis Laurent,Dahlienweg 4,Dahlienweg4,2555,Brügg BE,* 079 470 25 09,,
Descloux Marius,Rainstrasse 5,Rainstrasse5,2555,Brügg BE,* 032 372 70 30,,
Descloux Olivier,Friedhofweg 39,Friedhofweg39,2555,Brügg BE,* 044 586 00 33,,
Descloux Olivier Laszlo,Friedhofweg 39,Friedhofweg39,2555,Brügg BE,* 032 559 81 66,,
Deumic Bajro (-Sales),Römerstrasse 3,Römerstrasse3,2555,Brügg BE,032 365 70 43,,
Di Felice Domenico et Sarita,Aarestrasse 9,Aarestrasse9,2555,Brügg BE,032 342 25 15,,
Di Lorenzo Ines (-Di Matteo),Neubrückstrasse 26,Neubrückstrasse26,2555,Brügg BE,032 373 18 94,,
Di Meo Eveline und Gino,Haldenstrasse 14,Haldenstrasse14,2555,Brügg BE,* 032 373 56 09,,
Diaz-Grossenbacher Marianne u. Marcial,Kreuzgasse 9,Kreuzgasse9,2555,Brügg BE,032 373 34 42,,
Diethelm Jean,Brachmattstrasse 10,Brachmattstrasse10,2555,Brügg BE,032 373 51 11,diethelm.john@outlook.com,
Dind Ruth,Bielstrasse 80A,Bielstrasse80A,2555,Brügg BE,* 032 372 11 14,,
Doan Van Ut,Hauptstrasse 10,Hauptstrasse10,2555,Brügg BE,032 372 75 23,,
Donzé Jean-Pascal,Wasserstrasse 1A,Wasserstrasse1A,2555,Brügg BE,* 079 740 82 21,,
Droz Elisabeth,Schulstrasse 3B,Schulstrasse3B,2555,Brügg BE,* 032 373 73 08,,
Duarte José (-Walser),Aarestrasse 12,Aarestrasse12,2555,Brügg BE,* 032 373 64 26,,
Dubois Christian et Edith,Rosenweg 21,Rosenweg21,2555,Brügg BE,* 032 373 12 81,,
Dubois Michel,Haldenstrasse 28,Haldenstrasse28,2555,Brügg BE,* 032 365 10 08,,
Dubois du Nilac Cecile,Brachmattstrasse 2,Brachmattstrasse2,2555,Brügg BE,* 032 373 31 76,,
Eberhard Eugen,Industriestrasse 3,Industriestrasse3,2555,Brügg BE,* 032 373 59 56,,
Egger Markus,Bielstrasse 30,Bielstrasse30,2555,Brügg BE,032 373 32 66,,
Elghoudi Lamia,Erlenstrasse 1,Erlenstrasse1,2555,Brügg BE,* 032 372 71 15,,
Elmer Sonja,Kreuzgasse 21,Kreuzgasse21,2555,Brügg BE,* 032 322 46 58,pierre.elmer@bluewin.ch,
Eng Arno und Monika (-Affolter),Obergasse 13,Obergasse13,2555,Brügg BE,* 032 373 70 10,,
Enzi Brigitte,Orpundstrasse 7,Orpundstrasse7,2555,Brügg BE,032 373 29 37,,
Enzler Anita,Bielstrasse 35,Bielstrasse35,2555,Brügg BE,032 322 03 43,,
Ernstreiter Liselotte,Kreuzgasse 23,Kreuzgasse23,2555,Brügg BE,* 032 373 38 36,,
Etter Dora (-Schwyn),Hauptstrasse 8,Hauptstrasse8,2555,Brügg BE,* 032 373 37 74,,
Fähndrich Yolanda (-Hassler),Haldenstrasse 12,Haldenstrasse12,2555,Brügg BE,* 032 373 22 68,,
Fankhauser Rudolf (-Rihs),Hauptstrasse 10,Hauptstrasse10,2555,Brügg BE,* 032 365 95 62,,
Farine Therese (-Schüpbach),Industriestrasse 4A,Industriestrasse4A,2555,Brügg BE,032 373 48 18,,
Fauconnier Cédric,Guinandstrasse 10,Guinandstrasse10,2555,Brügg BE,* 032 322 53 32,,
Fauser Kurt und Anna (-Hurni),Klosterstrasse 13,Klosterstrasse13,2555,Brügg BE,* 031 879 19 17,,
Favrod Josef Markus,Tulpenweg 3,Tulpenweg3,2555,Brügg BE,* 032 373 25 10,,
Favrod Stauffer Therese,Eschenweg 4a,Eschenweg4a,2555,Brügg BE,* 032 373 41 30,favrod.therese@bluewin.ch,
Ferrara Sandro und Chantal (-Gerne),Guinandstrasse 20,Guinandstrasse20,2555,Brügg BE,* 032 373 52 33,,
Fieguth Jacot Margarete,Hofmatt 7,Hofmatt7,2555,Brügg BE,* 032 373 25 22,,
Fischer Bernhard und Susy,Orpundstrasse 28,Orpundstrasse28,2555,Brügg BE,* 032 373 21 35,,
Fischer Doris,Bielstrasse 38,Bielstrasse38,2555,Brügg BE,* 032 351 43 55,,
Fischer Ingrid (-Sander),Schulstrasse 3B,Schulstrasse3B,2555,Brügg BE,* 032 373 45 35,,
Fischer Madeleine,Aarestrasse 11,Aarestrasse11,2555,Brügg BE,* 032 373 43 18,,
Dr. med. dent. Fischer Rolf,Orpundstrasse 28,Orpundstrasse28,2555,Brügg BE,032 373 72 77,,
Fischer Verena,Dahlienweg 2,Dahlienweg2,2555,Brügg BE,* 032 372 18 80,,
Fivaz Arthur,Neubrückstrasse 22,Neubrückstrasse22,2555,Brügg BE,* 032 373 65 38,,
Flückiger Hans und Myriam,Rainpark 14,Rainpark14,2555,Brügg BE,* 032 373 31 44,,
Flückiger Liliane,Bielstrasse 3,Bielstrasse3,2555,Brügg BE,* 032 373 39 44,,
Fluri Moritz und Ruth,Hauptstrasse 10,Hauptstrasse10,2555,Brügg BE,* 032 331 93 32,,
"Flury Pia, Stefan, Nicola und Lisa",Orpundstrasse 21a,Orpundstrasse21a,2555,Brügg BE,* 032 373 35 73,,
Flury Stefan,Prateiweg 1,Prateiweg1,2555,Brügg BE,032 355 16 45,,
Fontana Isidor (-Wisler),Brachmattstrasse 3,Brachmattstrasse3,2555,Brügg BE,* 032 373 72 35,,
Frantzen Ewald,Industriestrasse 4,Industriestrasse4,2555,Brügg BE,* 076 546 83 09,frantzenewald@hotmail.com,
Frei Hanspeter,Dahlienweg 1,Dahlienweg1,2555,Brügg BE,032 373 34 83,,
Freiburghaus Theo und Esther (-Wyler),Dahlienweg 3,Dahlienweg3,2555,Brügg BE,* 032 373 15 08,,
Freudiger Markus,Brachmattstrasse 19,Brachmattstrasse19,2555,Brügg BE,* 032 373 60 33,,
Frey Walter,Neubrückstrasse 21,Neubrückstrasse21,2555,Brügg BE,* 032 373 15 57,,
Friedli Eugen und Bernadette (-Bucher),Burgersriedstrasse 11,Burgersriedstrasse11,2555,Brügg BE,* 032 341 02 59,,
Fuchs Verena und Hugo,Rebhalde 7,Rebhalde7,2555,Brügg BE,* 032 373 11 74,,
Fuhrimann Heidi,Brachmattstrasse 23,Brachmattstrasse23,2555,Brügg BE,032 373 30 89,,
Fülöp Tamas,Brachmattstrasse 15,Brachmattstrasse15,2555,Brügg BE,* 032 373 53 19,,
Gabi Hanspeter (-Schönmann),Obergasse 11,Obergasse11,2555,Brügg BE,032 373 32 70,,
Gächter Manuela und Christophe (-Schwab),Orpundstrasse 26,Orpundstrasse26,2555,Brügg BE,* 032 373 17 04,,
Galati Salvatore,Burgersriedstrasse 4,Burgersriedstrasse4,2555,Brügg BE,032 372 71 81,,
Ganaj Avdija,Erlenstrasse 2,Erlenstrasse2,2555,Brügg BE,* 078 711 14 03,,
Gander Ruth,Rosenweg 10,Rosenweg10,2555,Brügg BE,* 032 372 71 78,,
Garcia Olivier,Guinandstrasse 16,Guinandstrasse16,2555,Brügg BE,* 032 372 71 67,,
Gasperi Mara,Erlenstrasse 5,Erlenstrasse5,2555,Brügg BE,032 373 27 16,,
"Gass Christian, Sandra und Lia",Obergasse 21,Obergasse21,2555,Brügg BE,032 373 62 22,,
Gasser Eric (-Moser),Klosterstrasse 15,Klosterstrasse15,2555,Brügg BE,* 032 373 14 12,,
Gasser Franz,Bielstrasse 44,Bielstrasse44,2555,Brügg BE,* 032 351 13 05,,
Gehri Kurt u. Irene,Friedhofweg 17,Friedhofweg17,2555,Brügg BE,* 032 373 46 20,,
Geiser Erwin et Therese,Poststrasse 5,Poststrasse5,2555,Brügg BE,* 032 373 54 39,,
Geiser Werner,Obergasse 15,Obergasse15,2555,Brügg BE,032 372 15 46,,
Geissbühler Walter,Aarestrasse 11,Aarestrasse11,2555,Brügg BE,* 032 322 04 50,,
Gerber Martha,Bielstrasse 80A,Bielstrasse80A,2555,Brügg BE,* 032 322 06 17,,
"Gerber Mélanie, Noah und Joshua",Gartenweg 3,Gartenweg3,2555,Brügg BE,* 032 372 74 20,,
Gerber Ruedi und Claudine,Bielstrasse 80,Bielstrasse80,2555,Brügg BE,* 031 842 01 17,,
Gerber Simon,Erlenstrasse 5,Erlenstrasse5,2555,Brügg BE,032 372 20 16,,
Gerber Tobias,Obergasse 16D,Obergasse16D,2555,Brügg BE,076 528 75 48,,
Gfeller Reto,Friedhofweg 11,Friedhofweg11,2555,Brügg BE,032 372 20 68,gfeller@gmx.ch,
Gherbezza Marco und Stefanie (-Beck),Rebhalde 22,Rebhalde22,2555,Brügg BE,* 032 373 22 09,,
Gigandet Jean-Pierre,Mettgasse 6,Mettgasse6,2555,Brügg BE,* 032 373 57 42,,
Gil Arrieche Daniel José,Römerstrasse 3,Römerstrasse3,2555,Brügg BE,032 525 90 34,,
Gilgen Alfred,Friedhofweg 2,Friedhofweg2,2555,Brügg BE,* 079 224 08 72,,
Gilomen Kurt,Friedhofweg 49,Friedhofweg49,2555,Brügg BE,032 373 40 56,,
Gisin Susanne,Mettgasse 7,Mettgasse7,2555,Brügg BE,032 373 42 78,,
Glaus Eduard,Hauptstrasse 10,Hauptstrasse10,2555,Brügg BE,* 032 373 44 64,,
Glaus Silvia,Kreuzgasse 5,Kreuzgasse5,2555,Brügg BE,* 032 322 78 21,,
Gnanendran Vathsalathevi,Römerstrasse 3,Römerstrasse3,2555,Brügg BE,032 373 16 11,,
Godel Gisèle,Hauptstrasse 10,Hauptstrasse10,2555,Brügg BE,032 373 55 74,,
Gomez Marianne (-Vassaux),Rosenweg 21,Rosenweg21,2555,Brügg BE,032 373 67 70,,
Gómez Navarro Lidia,Guinandstrasse 6,Guinandstrasse6,2555,Brügg BE,* 032 384 47 44,,
Gotzmann Erika und Richard,Ahornweg 7,Ahornweg7,2555,Brügg BE,* 032 373 42 66,,
Graber Elisabetta (-Socha),Burgersriedstrasse 20,Burgersriedstrasse20,2555,Brügg BE,032 372 71 80,,
Graber Elzbieta Agnieszka,Burgersriedstrasse 20,Burgersriedstrasse20,2555,Brügg BE,032 372 77 67,,
Graber Ernst und Erika (-Imhof),Schulstrasse 3A,Schulstrasse3A,2555,Brügg BE,* 032 373 43 51,,
Grädel Hanspeter (-Bartl),Kreuzgasse 21,Kreuzgasse21,2555,Brügg BE,* 032 373 72 53,,
Graf Martin und Barbara (-Schüpbach),Orpundstrasse 30A,Orpundstrasse30A,2555,Brügg BE,* 032 373 20 85,,
Grau Roger u. Rosmarie,Mattenstrasse 18,Mattenstrasse18,2555,Brügg BE,* 032 373 62 94,,
Gregori Marie (-Jamar),Erlenstrasse 1,Erlenstrasse1,2555,Brügg BE,032 372 10 43,,
Grindat Daniel,Bielstrasse 62,Bielstrasse62,2555,Brügg BE,032 372 73 64,,
Grossenbacher Otto (-Mühlheim),Gottstattstrasse 10,Gottstattstrasse10,2555,Brügg BE,032 373 16 03,,
Grossenbacher Sandra,Rainpark 12,Rainpark12,2555,Brügg BE,* 032 373 55 43,,
Grossenbacher Werner u. Caterina,Aarestrasse 11,Aarestrasse11,2555,Brügg BE,032 373 44 30,,
Grunder Cédric und Marina,Brachmattstrasse 23,Brachmattstrasse23,2555,Brügg BE,* 079 897 92 22,c_grunder@hotmail.com,
Grütter Erwin,Haldenstrasse 21,Haldenstrasse21,2555,Brügg BE,* 079 689 42 41,,
Grütter Ulrich (-Zbinden),Haldenstrasse 26,Haldenstrasse26,2555,Brügg BE,032 373 51 32,,
Gsteiger Marthe,Bielstrasse 78C,Bielstrasse78C,2555,Brügg BE,032 373 51 09,,
Gsteiger Nicole Claudia,Brachmattstrasse 25,Brachmattstrasse25,2555,Brügg BE,* 032 372 78 05,,
Guenat Jacques,Aarestrasse 10,Aarestrasse10,2555,Brügg BE,* 032 373 32 76,,
Guillod Francois,Erlenstrasse 5,Erlenstrasse5,2555,Brügg BE,* 032 373 31 60,,
Gujer Henry (-Kunz),Burgersriedstrasse 17,Burgersriedstrasse17,2555,Brügg BE,032 373 22 15,,
Gurtner Andreas und Elisabeth (-Aebersold),Ahornweg 10,Ahornweg10,2555,Brügg BE,* 032 373 34 10,,
Gut Rudolf (-Bürgi),Friedhofweg 1,Friedhofweg1,2555,Brügg BE,* 032 365 08 41,,
Gutjahr Kurt,Bielstrasse 46,Bielstrasse46,2555,Brügg BE,* 032 373 44 94,,
Gutmann David,Gottstattstrasse 6,Gottstattstrasse6,2555,Brügg BE,032 323 65 79,,
Gygli Peter,Brachmattstrasse 13,Brachmattstrasse13,2555,Brügg BE,* 032 373 15 21,,
Habegger Philippe,Guinandstrasse 16,Guinandstrasse16,2555,Brügg BE,* 032 372 19 16,,
Häberlin Margrit,Schulstrasse 3b,Schulstrasse3b,2555,Brügg BE,* 032 373 39 68,,
Habte Asmeret,Erlenstrasse 4,Erlenstrasse4,2555,Brügg BE,032 341 05 85,,
Hafen Fredy,Rebhalde 5,Rebhalde5,2555,Brügg BE,* 032 373 54 82,,
Häfliger Frida (-Stocker),Bielstrasse 30,Bielstrasse30,2555,Brügg BE,* 032 373 32 69,,
Haibl Martin,Aarestrasse 2,Aarestrasse2,2555,Brügg BE,* 032 373 54 76,,
Hajjej Malek,Erlenstrasse 1,Erlenstrasse1,2555,Brügg BE,* 078 797 74 78,hajjejmalek@hotmail.com,
Haldemann Kim,Pfeidstrasse 20,Pfeidstrasse20,2555,Brügg BE,032 372 70 74,,
Haldi Rudolf,Eschenweg 11,Eschenweg11,2555,Brügg BE,* 032 373 27 88,,
Häni René,Bielstrasse 4,Bielstrasse4,2555,Brügg BE,* 078 711 58 74,,
Hänni Kurt und Ursula,Orpundstrasse 15a,Orpundstrasse15a,2555,Brügg BE,* 032 355 20 71,,
Hanspeter Hofer,Obergasse 16B,Obergasse16B,2555,Brügg BE,* 077 439 76 79,,
Hanzal Peter und Vanessa (-Schärer),Haldenstrasse 25,Haldenstrasse25,2555,Brügg BE,* 032 373 50 40,,
Hartmann Hansruedi u. Helena (-Blaser),Brachmattstrasse 11b,Brachmattstrasse11b,2555,Brügg BE,* 032 372 17 30,,
Hässig Werner (-Näpfli),Kanalweg 30,Kanalweg30,2555,Brügg BE,032 372 73 15,,
Haueter Elisabeth,Rebhalde 17,Rebhalde17,2555,Brügg BE,032 373 36 03,,
Haueter Marianne,Rebhalde 17,Rebhalde17,2555,Brügg BE,032 373 22 88,,
Hauser David und Gerda (-Pfister),Hofmatt 2,Hofmatt2,2555,Brügg BE,* 032 373 70 78,,
Hautle Andreas,Brachmattstrasse 27,Brachmattstrasse27,2555,Brügg BE,* 032 373 49 47,,
Hautle Hilda,Hauptstrasse 6,Hauptstrasse6,2555,Brügg BE,* 032 373 49 59,,
"Hegglin Max, Monica, Stefan und Michael (-Desax)",Burgersriedstrasse 14,Burgersriedstrasse14,2555,Brügg BE,* 032 355 11 53,,
Heiniger Martin,Guinandstrasse 12,Guinandstrasse12,2555,Brügg BE,* 032 365 02 81,,
Heiniger Roland (-Schmidt),Rebhalde 3,Rebhalde3,2555,Brügg BE,* 032 373 50 37,,
Heiniger Ruth Margaretha,Hauptstrasse 8,Hauptstrasse8,2555,Brügg BE,032 373 16 41,,
Heinimann Sibylle,Obergasse 7,Obergasse7,2555,Brügg BE,032 373 48 28,,
Helbling Rolf u. Evi (-v.d. Heyden),Eschenweg 1,Eschenweg1,2555,Brügg BE,032 373 35 80,,
Hemund Reinhard und Cécile (-Rauber),Neubrückstrasse 18,Neubrückstrasse18,2555,Brügg BE,* 032 373 63 93,,
Hermann Peter,Haldenstrasse 33,Haldenstrasse33,2555,Brügg BE,081 733 33 65,,
Hermle Sonja und Matthias,Gottstattstrasse 8,Gottstattstrasse8,2555,Brügg BE,* 032 331 38 07,,
Herrmann Alfred und Anita (-Häfeli),Neubrückstrasse 24,Neubrückstrasse24,2555,Brügg BE,* 032 331 28 23,,
Herrmann Anita (-Häfeli),Neubrückstrasse 24,Neubrückstrasse24,2555,Brügg BE,032 372 10 37,,
Heuer André,Bielstrasse 80a,Bielstrasse80a,2555,Brügg BE,032 373 46 08,,
Heuer Oswald,Brachmattstrasse 23,Brachmattstrasse23,2555,Brügg BE,032 373 68 06,,
Heuer Reinhard,Friedhofweg 27,Friedhofweg27,2555,Brügg BE,032 373 28 44,,
Heuer Renate,Pfeidstrasse 21,Pfeidstrasse21,2555,Brügg BE,* 032 372 71 85,,
Hirs Thomas,Mattenstrasse 10,Mattenstrasse10,2555,Brügg BE,* 032 372 71 13,,
Hirt Berteline,Bielstrasse 52,Bielstrasse52,2555,Brügg BE,* 032 372 14 78,,
Hirter Hildegard (-Ruesch),Erlenstrasse 1,Erlenstrasse1,2555,Brügg BE,032 373 27 38,,
Hochstrasser Esther,Klosterstrasse 13,Klosterstrasse13,2555,Brügg BE,032 373 41 79,,
Hofer Bertha (-Rumo),Römerstrasse 3,Römerstrasse3,2555,Brügg BE,* 032 373 38 68,,
Hofer Rosmarie,Neubrückstrasse 25,Neubrückstrasse25,2555,Brügg BE,* 032 373 64 24,,
Hoffer Madeleine,Bielstrasse 80a,Bielstrasse80a,2555,Brügg BE,* 032 373 52 74,,
Hoffmann Andreas,Klosterstrasse 2,Klosterstrasse2,2555,Brügg BE,* 032 505 23 52,,
Hoffmann Heinz und Monique (-Pittier),Haldenstrasse 17,Haldenstrasse17,2555,Brügg BE,* 032 373 48 76,,
Hofmann Heike,Hofmatt 10,Hofmatt10,2555,Brügg BE,* 079 381 39 85,,
Hofstetter Patrick,Haldenstrasse 27,Haldenstrasse27,2555,Brügg BE,* 079 504 70 09,,
Hooper Sean und Barbara (-Simonfi),Orpundstrasse 21D,Orpundstrasse21D,2555,Brügg BE,* 032 505 24 32,,
Hossmann Roger und Heidi,Brachmattstrasse 23,Brachmattstrasse23,2555,Brügg BE,* 032 373 14 18,,
Hostettler Eugen,Aarestrasse 15,Aarestrasse15,2555,Brügg BE,* 031 862 19 76,,
Houlmann Claude und Anne-Marie (-von Allmen),Pfeidstrasse 3,Pfeidstrasse3,2555,Brügg BE,* 032 365 90 54,,
Houmard Arthur,Brachmattstrasse 11b,Brachmattstrasse11b,2555,Brügg BE,* 032 373 13 66,,
Houmard Verena (-Bechtold),Guinandstrasse 10,Guinandstrasse10,2555,Brügg BE,032 373 28 58,,
Howald Ruedi,Orpundstrasse 28,Orpundstrasse28,2555,Brügg BE,* 032 373 30 73,,
Hubacher Erwin u. Oliva (-Casanova),Orpundstrasse 10,Orpundstrasse10,2555,Brügg BE,* 032 373 12 49,,
Huber Otto und Marianne (-Schafroth),Bielstrasse 52,Bielstrasse52,2555,Brügg BE,* 032 372 19 39,,
Huber Werner u. Dora (-Salcher),Tulpenweg 2,Tulpenweg2,2555,Brügg BE,* 032 373 57 81,,
Hug Max A. und Annemarie,Erlenstrasse 1,Erlenstrasse1,2555,Brügg BE,* 032 373 17 33,,
Hugi André-Michel,Hauptstrasse 24,Hauptstrasse24,2555,Brügg BE,* 079 617 73 01,,
Huguenin Gilbert u. Rose-Marie (-Weber),Burgersriedstrasse 6A,Burgersriedstrasse6A,2555,Brügg BE,* 032 373 33 62,,
Hürlimann Peuss,Hofmatt 10,Hofmatt10,2555,Brügg BE,* 079 389 67 50,,
Hürlimann Ruth,Aarestrasse 13,Aarestrasse13,2555,Brügg BE,* 032 372 13 49,,
Hurni Claudio,Guinandstrasse 14,Guinandstrasse14,2555,Brügg BE,032 721 00 01,,
Hurni Marianne,Brachmattstrasse 2,Brachmattstrasse2,2555,Brügg BE,* 032 373 14 47,,
Huter Marc,Guinandstrasse 10,Guinandstrasse10,2555,Brügg BE,* 032 365 73 12,,
Huwiler Marc,Orpundstrasse 30a,Orpundstrasse30a,2555,Brügg BE,* 032 322 13 44,,
Ilic Nikola,Industriestrasse 6,Industriestrasse6,2555,Brügg BE,032 373 65 82,,
Ingold Dorli (-Wüthrich),Orpundstrasse 6,Orpundstrasse6,2555,Brügg BE,032 373 19 56,,
Ingold Stefan u. Elisabeth (-Steiner),Rosenweg 21,Rosenweg21,2555,Brügg BE,032 373 32 85,,
Iseli Thomas und Sander Dagmar,Rainstrasse 10,Rainstrasse10,2555,Brügg BE,* 032 331 65 22,,
Isler Konrad,Burgersriedstrasse 31,Burgersriedstrasse31,2555,Brügg BE,* 032 373 37 68,,
Ismail Salim (-Strahm),Aarestrasse 7,Aarestrasse7,2555,Brügg BE,* 032 373 63 18,,
Jäckli Walter und Therese (-Bichsel),Bielstrasse 34,Bielstrasse34,2555,Brügg BE,* 032 365 83 81,,
Jacot Henri,Hofmatt 7,Hofmatt7,2555,Brügg BE,* 032 373 25 22,,
Jacot Turtschi Ursula,Erlenstrasse 4,Erlenstrasse4,2555,Brügg BE,* 032 373 34 01,,
Jäggi Andreas und Manuela (-Wyss),Pfeideck 18,Pfeideck18,2555,Brügg BE,* 079 669 82 01,,
Jäggi Hans-Ulrich,Brachmattstrasse 10,Brachmattstrasse10,2555,Brügg BE,* 032 373 32 88,,
Jäggi Savur Priska,Römerstrasse 1,Römerstrasse1,2555,Brügg BE,* 032 372 14 94,,
Jahic Andelka (-Rasic),Bielstrasse 78C,Bielstrasse78C,2555,Brügg BE,* 032 313 42 81,,
Jaidane Susanne,Aarestrasse 13,Aarestrasse13,2555,Brügg BE,032 372 19 20,,
Jakob Peter und Verena (-Mauerhofer),Aarestrasse 15,Aarestrasse15,2555,Brügg BE,* 032 373 26 63,,
Jakob Remy und Rosemarie (-Suri),Waldeckstrasse 14,Waldeckstrasse14,2555,Brügg BE,032 373 42 87,,
Jaussi Karl u. Rosa (-Roder),Orpundstrasse 6,Orpundstrasse6,2555,Brügg BE,034 445 44 68,,
Jegge Martin,Bahnhofstrasse 1,Bahnhofstrasse1,2555,Brügg BE,* 032 373 57 62,,
Jenni Gilbert und Manuela,Bielstrasse 36,Bielstrasse36,2555,Brügg BE,* 032 385 12 40,,
Jenni Jürg (-Bühler),Rosenweg 15,Rosenweg15,2555,Brügg BE,032 373 20 72,,
Jenni Margrith,Aarestrasse 11,Aarestrasse11,2555,Brügg BE,032 372 13 04,,
Jermann Cornelia,Chaletweg 5a,Chaletweg5a,2555,Brügg BE,* 079 697 14 60,,
Joss Manuela und Kurt (-Kohler),Rainpark 16,Rainpark16,2555,Brügg BE,* 032 373 19 20,,
Jost Annemarie,Aarestrasse 13,Aarestrasse13,2555,Brügg BE,032 373 31 67,,
Jost Werner,Sonnhalde 9,Sonnhalde9,2555,Brügg BE,034 411 21 43,,
Jud Werner (-Ryf),Neubrückstrasse 20,Neubrückstrasse20,2555,Brügg BE,032 342 40 92,,
Jutzi Susanne und Stefan (-Portmann),Pfeidstrasse 14,Pfeidstrasse14,2555,Brügg BE,* 032 373 65 66,,
Jutzi Werner u. Ursula (-Mathys),Pfeidstrasse 14,Pfeidstrasse14,2555,Brügg BE,* 032 373 40 18,,
Kaczmarek Zdzislaw,Erlenstrasse 5,Erlenstrasse5,2555,Brügg BE,032 373 59 75,,
Kaeser André,Aarestrasse 11,Aarestrasse11,2555,Brügg BE,032 373 63 51,,
Kaeser Thomas,Neubrückstrasse 40,Neubrückstrasse40,2555,Brügg BE,* 078 608 75 62,,
Kaeslin Christoph und Jacqueline (-Stöckli),Kanalweg 4,Kanalweg4,2555,Brügg BE,* 032 373 57 48,,
Kaller Stefan,Friedhofweg 3,Friedhofweg3,2555,Brügg BE,* 032 372 19 48,,
Kamm Martha (-Disch),Aarestrasse 15,Aarestrasse15,2555,Brügg BE,032 373 67 02,,
Kammermann Daniel,Burgersriedstrasse 11,Burgersriedstrasse11,2555,Brügg BE,* 078 697 64 11,,
Kanagasabai Sivarajah,Chaletweg 6A,Chaletweg6A,2555,Brügg BE,032 373 64 43,,
Kanapathipillai Parameswary,Erlenstrasse 2,Erlenstrasse2,2555,Brügg BE,032 373 15 78,,
Känel François,Bielstrasse 58,Bielstrasse58,2555,Brügg BE,032 373 33 45,,
Känel Katrin (-Roth),Brachmattstrasse 10,Brachmattstrasse10,2555,Brügg BE,032 372 72 15,,
Känel Markus und Känel Markus,Rebhalde 10,Rebhalde10,2555,Brügg BE,* 032 530 60 75,,
Känzig Hans-Ulrich und Verena (-Frautschi),Schulstrasse 3A,Schulstrasse3A,2555,Brügg BE,* 032 331 94 74,,
Käppeli Therese,Orpundstrasse 12,Orpundstrasse12,2555,Brügg BE,* 032 373 14 22,,
Käser Beda,Kreuzgasse 8,Kreuzgasse8,2555,Brügg BE,* 032 373 30 68,,
Kasper Anni,Rainstrasse 9,Rainstrasse9,2555,Brügg BE,* 032 373 24 09,,
Kasumaj Flora,Orpundstrasse 13A,Orpundstrasse13A,2555,Brügg BE,* 079 778 05 02,f.kasumaj@hotmail.com,
Kasumaj Mentor,Orpundstrasse 13A,Orpundstrasse13A,2555,Brügg BE,* 032 342 16 51,,
Kaufmann Béatrice (-Favre),Hauptstrasse 12A,Hauptstrasse12A,2555,Brügg BE,* 032 372 20 57,,
Kaufmann Kurt und Ursula (-Treuthardt),Sandacker 8,Sandacker8,2555,Brügg BE,* 032 373 34 23,,
Kaufmann Ueli (-Reber),Erlenstrasse 40,Erlenstrasse40,2555,Brügg BE,* 032 373 27 60,,
Keller Andrea,Römerstrasse 1,Römerstrasse1,2555,Brügg BE,* 032 372 11 84,,
Keller Eric,Rainstrasse 5,Rainstrasse5,2555,Brügg BE,032 373 40 84,,
Keller Gilbert und Franziska,Rainstrasse 19,Rainstrasse19,2555,Brügg BE,032 373 11 29,,
Keller Mariette,Römerstrasse 3,Römerstrasse3,2555,Brügg BE,032 373 11 82,,
Kempf Alfred (-Bartlome),Erlenstrasse 2,Erlenstrasse2,2555,Brügg BE,032 373 42 57,,
Kilchhofer Fritz,Brachmattstrasse 6,Brachmattstrasse6,2555,Brügg BE,032 373 12 52,,
Kipfer Brigitte u. Martin (-Jenni),Sandacker 6,Sandacker6,2555,Brügg BE,* 032 373 43 59,,
Kipfer Hans,Dahlienweg 2,Dahlienweg2,2555,Brügg BE,* 032 372 21 27,,
Knuchel Brigitte (-Steiner),Klosterstrasse 11,Klosterstrasse11,2555,Brügg BE,032 675 40 34,,
Kocher Ernst,Rosenweg 21,Rosenweg21,2555,Brügg BE,* 032 342 30 58,,
Kohli Anita und Marcel,Erlenstrasse 5,Erlenstrasse5,2555,Brügg BE,* 032 665 22 48,,
Köhli Silvia,Neubrückstrasse 22,Neubrückstrasse22,2555,Brügg BE,* 032 373 46 82,,
Koos Joern,Mattenstrasse 16,Mattenstrasse16,2555,Brügg BE,* 078 663 57 19,,
Kopcic Ivica (-Jelec),Schulstrasse 3A,Schulstrasse3A,2555,Brügg BE,* 032 373 27 42,,
Kossewski Leszek,Brachmattstrasse 11b,Brachmattstrasse11b,2555,Brügg BE,032 373 48 39,,
Krähenbühl Heinz,Rainpark 16,Rainpark16,2555,Brügg BE,* 032 373 31 30,,
Krähenbühl Margrith (-Kläy),Orpundstrasse 6,Orpundstrasse6,2555,Brügg BE,032 365 07 32,,
Krähenbühl Ulrich,Kreuzgasse 5,Kreuzgasse5,2555,Brügg BE,* 032 322 78 21,,
Krättli Erika,Neubrückstrasse 19,Neubrückstrasse19,2555,Brügg BE,032 373 46 04,,
Kräuchi Ingrid (-Rawyler),Orpundstrasse 23,Orpundstrasse23,2555,Brügg BE,032 373 26 48,,
Krebs Urech Margrit,Rainpark 16,Rainpark16,2555,Brügg BE,032 373 24 32,,
Krieg Walter (-Roth),Orpundstrasse 30A,Orpundstrasse30A,2555,Brügg BE,* 032 373 16 65,,
Kron Urs und Suzanne,Bielstrasse 36,Bielstrasse36,2555,Brügg BE,* 032 373 24 57,,
Krummacher Lia Anna-Christine,Bielstrasse 30,Bielstrasse30,2555,Brügg BE,079 397 48 30,,
Küffer Beat,Dahlienweg 3,Dahlienweg3,2555,Brügg BE,* 032 373 37 25,,
Küffer Hans,Orpundstrasse 21,Orpundstrasse21,2555,Brügg BE,* 032 373 35 87,,
Küffer Sandra,Rosenweg 10,Rosenweg10,2555,Brügg BE,* 032 372 21 81,,
Kundert Margrith,Mattenstrasse 18,Mattenstrasse18,2555,Brügg BE,032 372 19 11,,
Kündig Charlotte (-Osterwalder),Erlenstrasse 4,Erlenstrasse4,2555,Brügg BE,* 032 373 24 20,,
Küng Fredi,Guinandstrasse 2,Guinandstrasse2,2555,Brügg BE,032 373 21 39,,
Kunz Anton (-Berger),Mattenstrasse 4,Mattenstrasse4,2555,Brügg BE,* 032 373 50 33,,
Kunz Günter,Bielstrasse 80A,Bielstrasse80A,2555,Brügg BE,* 032 342 01 41,,
Kunz Hans,Brachmattstrasse 2,Brachmattstrasse2,2555,Brügg BE,032 372 72 84,,
Künzler Barbara,Friedhofweg 23,Friedhofweg23,2555,Brügg BE,* 078 716 55 76,,
Küpfer Fritz,Bielstrasse 79,Bielstrasse79,2555,Brügg BE,032 373 41 92,,
Kuster Matthias,Sonnhalde 4,Sonnhalde4,2555,Brügg BE,* 032 373 64 31,,
Läng Trudy,Orpundstrasse 6,Orpundstrasse6,2555,Brügg BE,032 355 20 12,,
Lanz Reinhard und Katharina (-Hofer),Grünweg 2,Grünweg2,2555,Brügg BE,* 032 372 70 84,,
Latifi Fatmir,Bielstrasse 32,Bielstrasse32,2555,Brügg BE,* 032 373 13 89,,
Laubscher Patrick,Bahnhofstrasse 2,Bahnhofstrasse2,2555,Brügg BE,* 032 372 18 70,,
Laubscher Ritz Claudia,Mattenstrasse 18,Mattenstrasse18,2555,Brügg BE,* 032 372 74 43,,
Ledermann Margrit,Kreuzgasse 21,Kreuzgasse21,2555,Brügg BE,032 373 32 28,,
Lehmann Sadrach,Orpundstrasse 9,Orpundstrasse9,2555,Brügg BE,* 032 373 11 18,,
Leiser Andreas,Orpundstrasse 28,Orpundstrasse28,2555,Brügg BE,* 079 333 42 55,,
Leiser Beatrix (-Leiser),Orpundstrasse 22b,Orpundstrasse22b,2555,Brügg BE,032 373 52 51,,
Leiser Dora,Hauptstrasse 8,Hauptstrasse8,2555,Brügg BE,* 032 373 17 66,,
Leiser Walter (-Rueedj),Burgersriedstrasse 12,Burgersriedstrasse12,2555,Brügg BE,032 373 47 25,,
Leon Hoya Encarnacion,Bielstrasse 32,Bielstrasse32,2555,Brügg BE,* 032 372 21 85,,
Lerch Erich,Guinandstrasse 6,Guinandstrasse6,2555,Brügg BE,* 032 384 47 44,,
Lerch Fritz u. Emmi (-Berger),Bielstrasse 80,Bielstrasse80,2555,Brügg BE,* 032 373 16 73,,
Lerch Martin,Bielstrasse 80,Bielstrasse80,2555,Brügg BE,* 044 586 81 63,,
Leu Franziska,Haldenstrasse 18,Haldenstrasse18,2555,Brügg BE,032 373 19 94,,
Leuenberger Hugo,Brachmattstrasse 12,Brachmattstrasse12,2555,Brügg BE,* 032 373 60 54,,
Leuenberger Lotti,Prateiweg 1,Prateiweg1,2555,Brügg BE,032 355 16 45,,
Leung Wai Lin,Bielstrasse 65B,Bielstrasse65B,2555,Brügg BE,032 373 41 55,,
Dr. phil. Ley Katharina,Rosenweg 17,Rosenweg17,2555,Brügg BE,* 031 371 85 94,,
Liechti Daniel (-Zürcher),Waldeckstrasse 8a,Waldeckstrasse8a,2555,Brügg BE,032 373 28 85,,
Likongo Sama Eugenie Mwika und de Rosen Anne,Brachmattstrasse 3,Brachmattstrasse3,2555,Brügg BE,* 032 372 16 37,eugeniesama.likongo@bluewin.ch,
Linder Alfred,Orpundstrasse 19,Orpundstrasse19,2555,Brügg BE,032 373 40 30,,
Linder Peter,Orpundstrasse 28,Orpundstrasse28,2555,Brügg BE,* 032 373 25 87,,
Linder Peter u. Lydia,Burgersriedstrasse 15A,Burgersriedstrasse15A,2555,Brügg BE,032 373 16 29,,
Linder Ruth,Brachmattstrasse 4,Brachmattstrasse4,2555,Brügg BE,032 373 23 27,,
Linder Samuel,Orpundstrasse 22,Orpundstrasse22,2555,Brügg BE,* 079 903 77 75,samuel.linder@gmx.ch,
Lips Marcel,Bielstrasse 78a,Bielstrasse78a,2555,Brügg BE,032 373 29 45,,
Loacker Harald und Barbara (-Schudel),Guinandstrasse 10,Guinandstrasse10,2555,Brügg BE,* 032 373 60 50,,
Lobsiger Alfred,Industriestrasse 4,Industriestrasse4,2555,Brügg BE,032 373 46 13,,
Lobsiger Heidi (-Burkhard),Brachmattstrasse 4,Brachmattstrasse4,2555,Brügg BE,032 373 28 30,,
Lobsiger Renata (-Boegli),Obergasse 22,Obergasse22,2555,Brügg BE,* 032 373 26 51,,
Lobsiger René,Neubrückstrasse 21,Neubrückstrasse21,2555,Brügg BE,* 079 209 33 70,,
Lobsiger Sacha und Doris (-Marbot),Obergasse 22,Obergasse22,2555,Brügg BE,* 032 372 13 08,,
Lobsiger Seline,Neubrückstrasse 22,Neubrückstrasse22,2555,Brügg BE,032 373 23 49,,
Locher Freya,Hauptstrasse 8,Hauptstrasse8,2555,Brügg BE,* 062 844 22 31,,
Loeffel Jean et Marlise (-De Jonckheere),Haldenstrasse 20a,Haldenstrasse20a,2555,Brügg BE,* 032 373 49 91,,
Löffel Daniel (-Gosteli),Rosenweg 21,Rosenweg21,2555,Brügg BE,032 373 17 42,,
Löffel Heinz u. Edith (-König),Burgersriedstrasse 15B,Burgersriedstrasse15B,2555,Brügg BE,* 032 373 15 85,,
Löffel Kurt,Sonnhalde 1,Sonnhalde1,2555,Brügg BE,032 373 15 15,,
Löffel Martin (-Jost),Pfeideck 15,Pfeideck15,2555,Brügg BE,032 373 19 87,,
Loosli Daniel,Pfeidstrasse 18,Pfeidstrasse18,2555,Brügg BE,* 032 341 95 06,,
Loosli Verena (-Lanz),Orpundstrasse 6,Orpundstrasse6,2555,Brügg BE,032 373 23 94,,
Lörtscher Elvira,Orpundstrasse 3,Orpundstrasse3,2555,Brügg BE,* 032 365 28 40,,
Lötscher Denis und Renate (-Salomon),Mettgasse 12,Mettgasse12,2555,Brügg BE,* 032 373 48 33,denisloetscher@bluewin.ch,
Lourenco de Brito Jorge et Lurdes,Guinandstrasse 16,Guinandstrasse16,2555,Brügg BE,032 341 53 86,,
Lüdi Franz (-Herzog),Eschenweg 12,Eschenweg12,2555,Brügg BE,* 032 373 54 55,,
Ludi Susanne (-Humbel),Orpundstrasse 6,Orpundstrasse6,2555,Brügg BE,032 377 15 91,,
Luginbühl Brigitte u. Heinz (-Böhme),Haldenstrasse 20A,Haldenstrasse20A,2555,Brügg BE,* 032 373 39 88,,
Luperto Marinella,Pfeidstrasse 20,Pfeidstrasse20,2555,Brügg BE,* 078 907 44 50,,
Lüscher Julia,Erlenstrasse 10,Erlenstrasse10,2555,Brügg BE,* 032 373 25 42,,
Lüthi Klara (-Sturzenegger),Orpundstrasse 6,Orpundstrasse6,2555,Brügg BE,032 341 86 33,,
Macrina Pantaleone,Erlenstrasse 5,Erlenstrasse5,2555,Brügg BE,032 373 29 67,,
Mäder Markus,Neubrückstrasse 23,Neubrückstrasse23,2555,Brügg BE,* 032 372 72 10,,
Mader Sibylle,Rainstrasse 21A,Rainstrasse21A,2555,Brügg BE,032 322 36 30,,
Maffei Karin (-Staudenmann),Neubrückstrasse 25,Neubrückstrasse25,2555,Brügg BE,032 373 52 46,,
Maggio Orazio und Hanna,Mettgasse 10,Mettgasse10,2555,Brügg BE,032 373 44 79,,
Mahsow Kathrin,Neubrückstrasse 18,Neubrückstrasse18,2555,Brügg BE,032 372 76 09,,
Maleszewski Bogdan und Marta,Hauptstrasse 12A,Hauptstrasse12A,2555,Brügg BE,* 032 342 23 53,,
Manca Luciano und Vittoria,Pfeidstrasse 20,Pfeidstrasse20,2555,Brügg BE,* 032 373 30 81,,
Manser Baldinger Marcel und Silvia,Bielstrasse 56,Bielstrasse56,2555,Brügg BE,* 032 372 77 79,,
Marolf Hans,Dahlienweg 4,Dahlienweg4,2555,Brügg BE,* 079 202 75 72,,
Marolf Heidi,Erlenstrasse 1,Erlenstrasse1,2555,Brügg BE,032 373 41 59,,
Marolf Heinrich und Ginette (-Peiry),Rainstrasse 17,Rainstrasse17,2555,Brügg BE,* 032 365 55 22,h.marolf@bluewin.ch,
Marti Alfred u. Xaveria (-Schmid),Rainstrasse 30C,Rainstrasse30C,2555,Brügg BE,* 031 721 62 24,,
Marti Alice,Orpundstrasse 6,Orpundstrasse6,2555,Brügg BE,032 373 15 13,,
Marti Andreas u. Maria (-Kellenberger),Rebhalde 20,Rebhalde20,2555,Brügg BE,* 032 373 36 48,,
Dr. med. Marti Anna Maria,Aarestrasse 4,Aarestrasse4,2555,Brügg BE,* 032 373 28 66,,
Marti Verena (-Feldmann),Rainstrasse 3,Rainstrasse3,2555,Brügg BE,* 031 721 38 60,,
Mathez Ginette,Orpundstrasse 30a,Orpundstrasse30a,2555,Brügg BE,* 032 341 31 53,,
Mathys Christoph,Pfeideck 8,Pfeideck8,2555,Brügg BE,032 373 40 01,,
Mathys Daniel (-Schwab),Eschenweg 3A,Eschenweg3A,2555,Brügg BE,* 032 373 37 58,,
Mathys Hansruedi,Pfeideck 8,Pfeideck8,2555,Brügg BE,* 032 373 30 75,,
Mathys Hermann (-Leiser),Aarestrasse 13,Aarestrasse13,2555,Brügg BE,032 373 25 67,,
Mathys Karin,Obergasse 18,Obergasse18,2555,Brügg BE,* 032 365 12 03,,
Mathys Ursula,Neubrückstrasse 15,Neubrückstrasse15,2555,Brügg BE,* 032 373 12 36,,
Matthey Marthe (-Haldimann),Rosenweg 7,Rosenweg7,2555,Brügg BE,032 373 25 77,,
Matti-Bieri Peter und Eveline,Pfeideck 9,Pfeideck9,2555,Brügg BE,* 032 355 22 54,,
Mätzener Ursula und Peter,Rainpark 16,Rainpark16,2555,Brügg BE,* 032 373 40 81,,
Maurer Erna,Friedhofweg 7,Friedhofweg7,2555,Brügg BE,032 373 19 73,,
Maurer Françoise,Bärletweg 3,Bärletweg3,2555,Brügg BE,* 078 763 18 92,,
Mawete Tsasa Benjamin,Erlenstrasse 4,Erlenstrasse4,2555,Brügg BE,* 078 821 34 44,,
Meer Hermann (-Rüegg),Bielstrasse 10,Bielstrasse10,2555,Brügg BE,* 032 372 14 05,,
Meier Beat,Ländteweg 13,Ländteweg13,2555,Brügg BE,032 373 48 35,,
Meier Franco,Erlenstrasse 2,Erlenstrasse2,2555,Brügg BE,032 373 50 81,,
Meier Laurent,Rosenweg 10,Rosenweg10,2555,Brügg BE,* 032 372 76 10,meier.l@gmx.ch,
Meier Urs,Hauptstrasse 20,Hauptstrasse20,2555,Brügg BE,* 032 373 12 44,,
Memedi Dzemil,Erlenstrasse 2,Erlenstrasse2,2555,Brügg BE,* 078 847 35 84,,
Menendez José,Bielstrasse 27,Bielstrasse27,2555,Brügg BE,032 373 55 12,,
Mensur Shoshi,Brachmattstrasse 11,Brachmattstrasse11,2555,Brügg BE,032 372 73 32,,
Messer Walter u. Chinh (-Lo),Industriestrasse 5,Industriestrasse5,2555,Brügg BE,032 373 19 59,,
Messerli Adrian,Pfeidstrasse 21,Pfeidstrasse21,2555,Brügg BE,032 373 25 29,,
Messerli Willy und Liska (-Grogg),Bielstrasse 60,Bielstrasse60,2555,Brügg BE,* 032 373 18 74,,
Messina Angelica,Bielstrasse 78c,Bielstrasse78c,2555,Brügg BE,032 373 45 81,,
Métry Inge,Erlenstrasse 1,Erlenstrasse1,2555,Brügg BE,* 032 373 34 75,,
Meuter Max (-Gäumann),Rosenweg 21,Rosenweg21,2555,Brügg BE,032 373 67 63,,
Meyer Christian und Heidi,Guinandstrasse 10,Guinandstrasse10,2555,Brügg BE,* 032 372 12 37,,
Meyer Doris,Orpundstrasse 30a,Orpundstrasse30a,2555,Brügg BE,* 032 341 31 53,,
Meyer Roger,Bielstrasse 54,Bielstrasse54,2555,Brügg BE,* 032 373 60 44,,
Meyer Veronika,Bärletweg 2,Bärletweg2,2555,Brügg BE,* 032 372 20 42,,
Meyer Tanner Ursula,Orpundstrasse 28,Orpundstrasse28,2555,Brügg BE,* 032 372 77 07,,
Michel Beat und Le Helley Michel Marie-Pierre,Rosenweg 2,Rosenweg2,2555,Brügg BE,* 032 341 36 58,,
Michellod Christophe et Aline (-Joder),Brachmattstrasse 13,Brachmattstrasse13,2555,Brügg BE,* 032 372 19 75,,
Migliori Stanislao,Rainstrasse 17,Rainstrasse17,2555,Brügg BE,* 032 372 16 38,,
Mischler Kurt,Bielstrasse 63,Bielstrasse63,2555,Brügg BE,* 032 373 45 40,,
Möckli Raymond,Erlenstrasse 1,Erlenstrasse1,2555,Brügg BE,* 032 373 21 62,,
Mohr Beat,Bielstrasse 84,Bielstrasse84,2555,Brügg BE,* 032 373 57 83,beat.mohr@bluewin.ch,
Mollet Jean-Pierre et Yvette (-Schoenenberger),Rainpark 15,Rainpark15,2555,Brügg BE,032 373 27 65,,
Mollet Peter und Isabelle (-Gerber),Kreuzgasse 3,Kreuzgasse3,2555,Brügg BE,* 032 373 12 75,,
Mollet Sylvia,Kreuzgasse 3,Kreuzgasse3,2555,Brügg BE,* 032 373 21 75,,
Montavon Patrick,Erlenstrasse 8,Erlenstrasse8,2555,Brügg BE,032 505 30 88,,
Morand Magdalena (-Eichenberger),Gottstattstrasse 3,Gottstattstrasse3,2555,Brügg BE,032 373 34 19,,
Möri André,Guinandstrasse 24,Guinandstrasse24,2555,Brügg BE,* 079 684 79 87,,
Möri Hanspeter u. Maria-Christina,Rosenweg 8,Rosenweg8,2555,Brügg BE,* 032 373 23 32,,
Morjen Patricia (-Wenger),Guinandstrasse 4,Guinandstrasse4,2555,Brügg BE,* 032 372 73 16,,
Moser Therese,Brachmattstrasse 1,Brachmattstrasse1,2555,Brügg BE,032 373 21 59,,
Moskic Srecko,Pfeidstrasse 17,Pfeidstrasse17,2555,Brügg BE,032 372 71 33,,
Muccia Melanie,Erlenstrasse 40,Erlenstrasse40,2555,Brügg BE,* 032 372 76 56,,
Mühlemann Frieda (-Hediger),Aarestrasse 13,Aarestrasse13,2555,Brügg BE,* 077 456 59 16,,
Mühlethaler Urs,Burgersriedstrasse 11,Burgersriedstrasse11,2555,Brügg BE,* 078 891 08 88,,
Mühlheim Hans und Susanne (-Jann),Obergasse 20,Obergasse20,2555,Brügg BE,* 032 373 33 82,,
Müller Ernst und Doris (-du Toit),Erlenstrasse 5,Erlenstrasse5,2555,Brügg BE,* 032 373 27 23,,
Müller Heinz,Klosterstrasse 13,Klosterstrasse13,2555,Brügg BE,* 061 261 53 04,,
Müller Heinz und Eliane (-Emery),Rainpark 16,Rainpark16,2555,Brügg BE,* 079 501 09 73,,
Müller Monika,Orpundstrasse 6,Orpundstrasse6,2555,Brügg BE,* 032 365 78 58,,
Mutti Walter und Marie-Louise (-Gloor),Orpundstrasse 28,Orpundstrasse28,2555,Brügg BE,* 032 373 68 13,,
Naef Annelise,Obergasse 4,Obergasse4,2555,Brügg BE,079 374 53 71,,
Nenadic Mira,Bärletweg 5,Bärletweg5,2555,Brügg BE,032 373 18 07,,
Neuhaus Nico,Obergasse 21,Obergasse21,2555,Brügg BE,032 373 62 22,,
Neuherz Adolf (-Huber),Friedhofweg 7,Friedhofweg7,2555,Brügg BE,* 032 373 27 68,,
Neuherz Markus und Doris (-Bühler),Waldeckstrasse 3,Waldeckstrasse3,2555,Brügg BE,* 032 373 17 64,,
Neumeyer Josefine,Brachmattstrasse 1,Brachmattstrasse1,2555,Brügg BE,* 032 373 46 61,,
Neziri Zabit,Gartenweg 5,Gartenweg5,2555,Brügg BE,* 032 373 10 72,,
Nicolet Chantal,Erlenstrasse 5,Erlenstrasse5,2555,Brügg BE,* 032 373 46 55,,
Nicotera Rosario,Brachmattstrasse 11B,Brachmattstrasse11B,2555,Brügg BE,* 032 373 32 42,,
Nikles Fritz,Industriestrasse 4a,Industriestrasse4a,2555,Brügg BE,032 373 26 86,,
Nikolic Dobrosav,Erlenstrasse 2,Erlenstrasse2,2555,Brügg BE,032 373 24 66,,
Nikolic Tanja,Friedhofweg 3,Friedhofweg3,2555,Brügg BE,* 078 880 52 07,,
Dr. Nilles Klaus,Haldenstrasse 35,Haldenstrasse35,2555,Brügg BE,* 032 373 31 21,,
Nobs Theo und Monika (-Wettenschwiler),Rebhalde 1,Rebhalde1,2555,Brügg BE,* 032 373 64 38,,
Nsiri Mohamed,Kreuzgasse 21,Kreuzgasse21,2555,Brügg BE,* 079 323 83 16,,
Nussbaum Lilo,Neubrückstrasse 32,Neubrückstrasse32,2555,Brügg BE,032 373 19 26,,
Nussbaum Marianne,Orpundstrasse 11c,Orpundstrasse11c,2555,Brügg BE,032 373 39 50,,
Nydegger Bruno,Mattenstrasse 18,Mattenstrasse18,2555,Brügg BE,* 032 372 75 05,,
Nydegger Estela,Pfeidstrasse 13,Pfeidstrasse13,2555,Brügg BE,* 032 373 68 15,,
Nyfeler Erika,Obergasse 15,Obergasse15,2555,Brügg BE,032 373 55 19,,
Obergsell Heinz (-Bütikofer),Pfeidstrasse 8,Pfeidstrasse8,2555,Brügg BE,032 373 27 40,,
Ochsner Heinz,Guinandstrasse 48,Guinandstrasse48,2555,Brügg BE,* 032 372 17 14,,
Oesch Antoine et Valérie (-Hofmann),Obergasse 16,Obergasse16,2555,Brügg BE,* 032 372 10 24,,
Ong Ngoc Dung,Mattenstrasse 1,Mattenstrasse1,2555,Brügg BE,032 373 40 37,,
Oppliger Heinz und Heidi (-Wenger),Hauptstrasse 7,Hauptstrasse7,2555,Brügg BE,* 032 373 47 67,,
Oppliger Peter u. Béatrice (-Aebischer),Rainstrasse 30,Rainstrasse30,2555,Brügg BE,* 032 372 15 92,,
Paladino Salvator,Bielstrasse 45,Bielstrasse45,2555,Brügg BE,032 365 36 71,,
Palma Monique Charlotte,Hauptstrasse 12A,Hauptstrasse12A,2555,Brügg BE,* 032 481 10 93,,
Paola Silvana u. Cesare,Friedhofweg 23,Friedhofweg23,2555,Brügg BE,032 373 29 62,,
Paramalingam Thayananthan,Mattenstrasse 18,Mattenstrasse18,2555,Brügg BE,032 373 32 48,,
Pauli Colette,Haldenstrasse 10,Haldenstrasse10,2555,Brügg BE,* 032 365 50 54,,
Pereira Schenkel René,Schulstrasse 5,Schulstrasse5,2555,Brügg BE,* 032 373 32 74,,
Perret Barbara Elisabeth Gert,Eschenweg 7,Eschenweg7,2555,Brügg BE,* 032 373 53 26,,
Pesenti Nelly Elsa (-Röthlisberger),Orpundstrasse 6,Orpundstrasse6,2555,Brügg BE,* 032 341 19 68,,
Peter Beate und Jürg,Orpundstrasse 26A,Orpundstrasse26A,2555,Brügg BE,* 032 355 35 72,,
Peter Daniel,Haldenstrasse 20a,Haldenstrasse20a,2555,Brügg BE,* 032 373 51 05,,
Petterino Franco und Andrea (-Stamm),Rainpark 2,Rainpark2,2555,Brügg BE,* 032 373 39 87,,
Pfeiffer Rosmarie,Pfeidstrasse 25,Pfeidstrasse25,2555,Brügg BE,* 032 372 13 54,,
Pfister Gerhard,Rosenweg 17,Rosenweg17,2555,Brügg BE,* 076 404 11 12,,
Pfister Stefan und Beatrice (-Wäfler),Hofmatt 2,Hofmatt2,2555,Brügg BE,032 373 56 60,,
Pfuch Susan,Dahlienweg 4,Dahlienweg4,2555,Brügg BE,032 372 15 23,,
Pineda Max und Florinda (-Montes),Gummenstrasse 24,Gummenstrasse24,2555,Brügg BE,* 032 342 38 80,,
Pletscher Hans und Victorina (-Sandi),Sonnhalde 5,Sonnhalde5,2555,Brügg BE,* 032 373 48 89,,
Popovic Zavisa,Bielstrasse 34,Bielstrasse34,2555,Brügg BE,* 032 365 42 84,,
Portmann Alfred,Orpundstrasse 6,Orpundstrasse6,2555,Brügg BE,032 331 68 79,,
Portmann Hanspeter,Poststrasse 2,Poststrasse2,2555,Brügg BE,032 373 33 02,,
Probst A. (-Röthlisberger),Chaletweg 9,Chaletweg9,2555,Brügg BE,* 079 630 36 57,,
Probst Charles (-Stauffer),Chaletweg 9,Chaletweg9,2555,Brügg BE,* 032 373 50 87,,
Probst Daniel,Rebhalde 13A,Rebhalde13A,2555,Brügg BE,* 032 373 25 51,,
Probst René und Elisabeth,Rebhalde 18,Rebhalde18,2555,Brügg BE,032 373 15 43,,
Probst Suzanne,Guinandstrasse 30,Guinandstrasse30,2555,Brügg BE,032 365 66 41,,
Procopio Rosetta,Erlenstrasse 4,Erlenstrasse4,2555,Brügg BE,032 373 40 77,,
Prum Chantha,Pfeidstrasse 15,Pfeidstrasse15,2555,Brügg BE,032 373 36 82,,
Quaglia Naomi,Bielstrasse 64,Bielstrasse64,2555,Brügg BE,* 079 109 74 70,,
Quirici Peter und Pattarin,Bärletweg 2,Bärletweg2,2555,Brügg BE,* 032 357 11 12,,
Racine Robert u. Elsbeth,Orpundstrasse 17,Orpundstrasse17,2555,Brügg BE,032 373 12 68,,
Raclé Pia,Aarestrasse 11,Aarestrasse11,2555,Brügg BE,032 373 63 51,,
Radelfinger Hans-Rudolf und Silvia,Guinandstrasse 42,Guinandstrasse42,2555,Brügg BE,* 032 351 52 24,,
Radice Giuseppe,Hauptstrasse 24,Hauptstrasse24,2555,Brügg BE,032 373 20 16,,
Rados Stipan,Aarestrasse 9,Aarestrasse9,2555,Brügg BE,032 373 42 45,,
Rajic Daisy (-Hlubna),Burgersriedstrasse 29,Burgersriedstrasse29,2555,Brügg BE,* 032 373 29 57,,
Rapold Peter,Friedhofweg 25,Friedhofweg25,2555,Brügg BE,* 032 373 26 73,,
Rasiah Chandran,Aarestrasse 11,Aarestrasse11,2555,Brügg BE,032 373 27 35,,
Rasori Maurizio und Rosmarie,Waldeckstrasse 5,Waldeckstrasse5,2555,Brügg BE,032 373 45 44,,
Rast J. Béat,Brachmattstrasse 12,Brachmattstrasse12,2555,Brügg BE,* 032 373 52 22,,
Rasuli Mohamad,Erlenstrasse 1,Erlenstrasse1,2555,Brügg BE,* 032 372 75 38,,
Rawyler Anna,Rainstrasse 34,Rainstrasse34,2555,Brügg BE,* 032 372 76 37,,
Rawyler Beatrice,Bärletweg 10,Bärletweg10,2555,Brügg BE,* 032 372 10 54,,
Rawyler Bruno,Haldenstrasse 32,Haldenstrasse32,2555,Brügg BE,* 032 373 36 91,,
Rawyler Daisy und Hans-U. (-Hanf),Obergasse 21,Obergasse21,2555,Brügg BE,032 373 35 17,,
Rawyler Elisabeth,Bielstrasse 30,Bielstrasse30,2555,Brügg BE,032 373 31 17,,
Rawyler Erica,Bielstrasse 49a,Bielstrasse49a,2555,Brügg BE,* 032 373 20 62,,
Rawyler Françoise,Industriestrasse 3,Industriestrasse3,2555,Brügg BE,032 373 46 30,,
Rawyler Fred und Theres (-Schreiber),Bärletweg 30,Bärletweg30,2555,Brügg BE,* 032 373 23 55,,
Rawyler Hans (-Christen),Mettgasse 14,Mettgasse14,2555,Brügg BE,032 373 17 68,,
Rawyler Hans-Rudolf und Ursula (-Scheidegger),Rainpark 7,Rainpark7,2555,Brügg BE,* 032 373 28 62,,
Rawyler Heidi (-Glauser),Orpundstrasse 6,Orpundstrasse6,2555,Brügg BE,* 032 373 18 30,,
Rawyler René (-Zimmermann),Bielstrasse 25,Bielstrasse25,2555,Brügg BE,* 032 373 35 32,,
Rawyler Rudolf u. Lydia (-Furer),Kreuzgasse 12,Kreuzgasse12,2555,Brügg BE,* 032 373 33 27,,
Reber Marie-Louise (-Hitz),Rebhalde 4,Rebhalde4,2555,Brügg BE,032 373 45 24,,
Reber Priska,Neubrückstrasse 20,Neubrückstrasse20,2555,Brügg BE,032 373 55 32,,
Recchia Antonio,Brachmattstrasse 4,Brachmattstrasse4,2555,Brügg BE,032 373 23 67,,
Redmond Anita,Guinandstrasse 10,Guinandstrasse10,2555,Brügg BE,* 032 365 73 12,,
Reinhard Erich,Chaletweg 5,Chaletweg5,2555,Brügg BE,032 373 23 56,,
Reinhard Hans (-Zysset),Chaletweg 7,Chaletweg7,2555,Brügg BE,032 373 40 58,,
Reis Caracol Isabel (-Santos),Erlenstrasse 10,Erlenstrasse10,2555,Brügg BE,032 373 61 29,,
Reist Bettina,Erlenstrasse 1,Erlenstrasse1,2555,Brügg BE,* 032 372 74 79,,
Reist Erna (-Zbinden),Rainpark 4,Rainpark4,2555,Brügg BE,032 373 10 04,,
Remund Zbinden Regula,Burgersriedstrasse 5,Burgersriedstrasse5,2555,Brügg BE,032 389 52 33,,
Renatus Isabella und Peter (-Lasser),Rainstrasse 6,Rainstrasse6,2555,Brügg BE,* 079 279 31 50,renatus@datacomm.ch,
Rey Kühntopf Edith,Brachmattstrasse 11A,Brachmattstrasse11A,2555,Brügg BE,032 372 71 58,,
Richard Fredy (-Kohler),Pfeidstrasse 8,Pfeidstrasse8,2555,Brügg BE,* 032 373 35 54,,
Richard Marcel,Neubrückstrasse 20,Neubrückstrasse20,2555,Brügg BE,032 373 46 60,,
Riedo Jean-Claude und Karin (-Stämpfli),Ahornweg 23,Ahornweg23,2555,Brügg BE,* 032 341 27 30,,
Rieger Irene,Erlenstrasse 5,Erlenstrasse5,2555,Brügg BE,032 373 37 32,,
Rieker Michel,Neubrückstrasse 26,Neubrückstrasse26,2555,Brügg BE,032 373 24 71,,
Rieker Michel,Friedhofweg 6,Friedhofweg6,2555,Brügg BE,032 373 23 91,,
Riess Bruno,Pfeidstrasse 15,Pfeidstrasse15,2555,Brügg BE,* 032 372 21 87,,
Rime Marcel,Brachmattstrasse 27,Brachmattstrasse27,2555,Brügg BE,032 373 47 38,,
Ritter Hans (-Kremser),Ahornweg 9,Ahornweg9,2555,Brügg BE,* 032 373 16 77,,
Ritter Klaus,Rainpark 16,Rainpark16,2555,Brügg BE,* 079 372 38 15,,
Robinson Michael,Brachmattstrasse 4,Brachmattstrasse4,2555,Brügg BE,* 079 208 21 48,,
Rodrigues Kessler Ana Paula und Jörg,Mattenstrasse 18,Mattenstrasse18,2555,Brügg BE,* 032 372 79 21,,
Rolli Walter und Liselotte (-Bernet),Mühleweg 1,Mühleweg1,2555,Brügg BE,* 032 372 21 89,,
Româo Manuel José,Industriestrasse 4b,Industriestrasse4b,2555,Brügg BE,* 032 373 51 20,,
Römer Jan und Maja,Brachmattstrasse 11b,Brachmattstrasse11b,2555,Brügg BE,* 032 373 22 02,,
Röösli Hans-Rudolf,Brachmattstrasse 27,Brachmattstrasse27,2555,Brügg BE,* 032 373 49 09,,
Rosa Amadeus,Gottstattstrasse 1,Gottstattstrasse1,2555,Brügg BE,* 032 384 42 23,,
Rösch Jonas,Sonnhalde 10,Sonnhalde10,2555,Brügg BE,* 079 512 79 60,,
Rosenberg Barbara,Orpundstrasse 6,Orpundstrasse6,2555,Brügg BE,* 032 373 27 19,,
Rossel Bastian und Valérie (-Roth),Rebhalde 2,Rebhalde2,2555,Brügg BE,* 079 829 67 28,,
Röthlisberger Christoph und Patrizia (-Scherrer),Guinandstrasse 46,Guinandstrasse46,2555,Brügg BE,* 032 331 89 35,,
Röthlisberger Nicolas,Brachmattstrasse 11A,Brachmattstrasse11A,2555,Brügg BE,* 079 588 14 68,,
Röthlisberger Paul und Dora (-Allemann),Haldenstrasse 34,Haldenstrasse34,2555,Brügg BE,* 032 373 49 13,,
Röthlisberger Geissbühler Regula,Brachmattstrasse 12,Brachmattstrasse12,2555,Brügg BE,* 032 373 50 10,,
