Adresse;PLZ;Stadt;Preis (CHF/m2/jahr);Link;Ganze Adresse;Longitude;Latitude
Rennweg 57;8001;Zürich;Price on request;https://www.homegate.ch/rent/3001658051;Rennweg 57 8001;8.53886890411377;47.373695373535156
Dreikönigstrasse 7;8002;Zürich;680;https://www.homegate.ch/rent/3001700620;Dreikönigstrasse 7 8002;8.538177490234375;47.36741638183594
Universitätsstrasse 105;8006;Zürich;474;https://www.homegate.ch/rent/3001736506;Universitätsstrasse 105 8006;8.54810619354248;47.38438034057617
Vulkanstrasse 130;8048;Zürich;250;https://www.homegate.ch/rent/3001656113;Vulkanstrasse 130 8048;8.480015754699707;47.39533233642578
Flurstrasse;8048;Zürich;260;https://www.homegate.ch/rent/3001606434;Flurstrasse 8048;8.497150421142578;47.38811111450195
Vulkanstrasse 130;8048;Zürich;250;https://www.homegate.ch/rent/3001431755;Vulkanstrasse 130 8048;8.480015754699707;47.39533233642578
Vulkanstrasse 130;8048;Zürich;250;https://www.homegate.ch/rent/3001431754;Vulkanstrasse 130 8048;8.480015754699707;47.39533233642578
Vulkanstrasse 130;8048;Zürich;250;https://www.homegate.ch/rent/3001431753;Vulkanstrasse 130 8048;8.480015754699707;47.39533233642578
Altstetterstrasse 124;8048;Zürich;Price on request;https://www.homegate.ch/rent/3001477317;Altstetterstrasse 124 8048;8.4865140914917;47.389644622802734
Limmatquai 92;8001;Zürich;10300;https://www.homegate.ch/rent/3001769241;Limmatquai 92 8001;8.543136596679688;47.37397384643555
Bahnhofstrasse 69;8001;Zürich;795;https://www.homegate.ch/rent/3001646088;Bahnhofstrasse 69 8001;8.538156509399414;47.37407684326172
Bahnhofstrasse 71;8001;Zürich;Price on request;https://www.homegate.ch/rent/3001755858;Bahnhofstrasse 71 8001;8.53826904296875;47.37432861328125
Gottfried-Keller-Strasse 7;8001;Zürich;Price on request;https://www.homegate.ch/rent/3001542666;Gottfried-Keller-Strasse 7 8001;8.547481536865234;47.36640930175781
Marsstrasse 2;8001;Zürich;Price on request;https://www.homegate.ch/rent/3001388782;Marsstrasse 2 8001; 8.534620224640374;47.361624326955436
Bleicherweg 64;8002;Zürich;4160;https://www.homegate.ch/rent/3001766673;Bleicherweg 64 8002;8.53286361694336;47.367488861083984
Stockerstrasse 43;8002;Zürich;7750;https://www.homegate.ch/rent/3001328354;Stockerstrasse 43 8002;8.534263610839844;47.367923736572266
Dianastrasse 9;8002;Zürich;520;https://www.homegate.ch/rent/3000849318;Dianastrasse 9 8002;8.533132553100586;47.368656158447266
General-Guisan-Quai 36;8002;Zürich;Price on request;https://www.homegate.ch/rent/3001735545;General-Guisan-Quai 36 8002;8.535439491271973;47.36396789550781
Manessestrasse 2;8003;Zürich;8450;https://www.homegate.ch/rent/3001738403;Manessestrasse 2 8003;8.527671813964844;47.369388580322266
Kanzleistrasse 129;8004;Zürich;4000;https://www.homegate.ch/rent/3001764372;Kanzleistrasse 129 8004;8.520004272460938;47.376800537109375
Zeughausstrasse 5;8004;Zürich;380;https://www.homegate.ch/rent/3001451823;Zeughausstrasse 5 8004;8.531700134277344;47.37474060058594
Förrlibuckstrasse 30;8005;Zürich;390;https://www.homegate.ch/rent/3001435915;Förrlibuckstrasse 30 8005;8.515863418579102;47.3914680480957
Stampfenbachstrasse 85;8006;Zürich;501;https://www.homegate.ch/rent/3001744459;Stampfenbachstrasse 85 8006;8.541487693786621;47.38240432739258
Dufourstrasse 185a;8008;Zürich;550;https://www.homegate.ch/rent/3001172819;Dufourstrasse 185a 8008;8.556660652160645;47.35402297973633
Dufourstrasse 101;8008;Zürich;405;https://www.homegate.ch/rent/3001166784;Dufourstrasse 101 8008;8.551755905151367;47.358985900878906
Bellerivestrasse 33;8008;Zürich;610;https://www.homegate.ch/rent/3001367504;Bellerivestrasse 33 8008;8.55066204071045;47.35795974731445
Asylstrasse 70;8032;Zürich;4600;https://www.homegate.ch/rent/3001742440;Asylstrasse 70 8032;8.560816764831543;47.36730194091797
Hofackerstrasse 13a;8032;Zürich;7835;https://www.homegate.ch/rent/3001752691;Hofackerstrasse 13a 8032;8.562751770019531;47.36199951171875
Maneggstrasse 93-95;8041;Zürich;280;https://www.homegate.ch/rent/3001733001;Maneggstrasse 93-95 8041;8.52000904083252;47.337501525878906
Binzstrasse 24;8045;Zürich;250;https://www.homegate.ch/rent/3001439854;Binzstrasse 24 8045;8.514180183410645;47.362579345703125
Rautistrasse 33;8047;Zürich;275;https://www.homegate.ch/rent/3001593601;Rautistrasse 33 8047;8.49167537689209;47.38092041015625
Flurstrasse 64 & 66;8047;Zürich;280;https://www.homegate.ch/rent/3001671081;Flurstrasse 64 & 66 8047;8.493608474731445;47.38357925415039
Bernerstrasse Süd;8048;Zürich;220;https://www.homegate.ch/rent/3001622904;Bernerstrasse Süd 8048;8.486639022827148;47.39438247680664
Bernerstrasse Nord 202;8048;Zürich;210;https://www.homegate.ch/rent/3001310073;Bernerstrasse Nord 202 8048; 8.483867501350387;47.39617421966477
Bernerstrasse Süd;8048;Zürich;220;https://www.homegate.ch/rent/3001622910;Bernerstrasse Süd 8048;8.486639022827148;47.39438247680664
Bernerstrasse Süd;8048;Zürich;220;https://www.homegate.ch/rent/3001131775;Bernerstrasse Süd 8048;8.486639022827148;47.39438247680664
Herostrasse 9;8048;Zürich;180;https://www.homegate.ch/rent/3001619403;Herostrasse 9 8048;8.488344192504883;47.39385986328125
Bändliweg 20;8048;Zürich;250;https://www.homegate.ch/rent/3001069994;Bändliweg 20 8048;8.483774185180664;47.394840240478516
Altstetterstrasse 124;8048;Zürich;Price on request;https://www.homegate.ch/rent/3000086498;Altstetterstrasse 124 8048;8.4865140914917;47.389644622802734
Binzmühlestrasse 210;8050;Zürich;3600;https://www.homegate.ch/rent/3001418392;Binzmühlestrasse 210 8050;8.531195640563965;47.413909912109375
Hagenholzstrasse 81A;8050;Zürich;220;https://www.homegate.ch/rent/3001663367;Hagenholzstrasse 81A 8050;8.558866500854492;47.41545867919922
Leutschenbachstr. 95;8050;Zürich;250;https://www.homegate.ch/rent/3001682389;Leutschenbachstr. 95 8050;8.55895709991455;47.41786575317383
Leutschenbachstr. 95;8050;Zürich;255;https://www.homegate.ch/rent/3001614978;Leutschenbachstr. 95 8050;8.55895709991455;47.41786575317383
Grünhaldenstrasse 6;8050;Zürich;Price on request;https://www.homegate.ch/rent/3000763736;Grünhaldenstrasse 6 8050;8.54566478729248;47.41617965698242
Bahnhofstrasse 37;8001;Zürich;100;https://www.homegate.ch/rent/108829519;Bahnhofstrasse 37 8001;8.538429260253906;47.37137222290039
Bahnhoftsrasse 10 / Eingang Börsenstrasse 18;8001;Zürich;39.48;https://www.homegate.ch/rent/107687896;Bahnhoftsrasse 10 / Eingang Börsenstrasse 18 8001;8.539912223815918;47.36872100830078
Bahnhofstrasse 10;8001;Zürich;55.08;https://www.homegate.ch/rent/107687899;Bahnhofstrasse 10 8001;8.540120124816895;47.368133544921875
Bahnhofstrasse 10;8001;Zürich;89.88;https://www.homegate.ch/rent/107687898;Bahnhofstrasse 10 8001;8.540120124816895;47.368133544921875
Lintheschergasse 17;8001;Zürich;520;https://www.homegate.ch/rent/3000951735;Lintheschergasse 17 8001;8.538628578186035;47.376380920410156
Uraniastrasse 20;8001;Zürich;516;https://www.homegate.ch/rent/3001234661;Uraniastrasse 20 8001;8.536096572875977;47.374080657958984
Löwenstrasse 12;8001;Zürich;495;https://www.homegate.ch/rent/3001656517;Löwenstrasse 12 8001;8.535168647766113;47.37357711791992
Löwenstrasse 42;8001;Zürich;522;https://www.homegate.ch/rent/3001748592;Löwenstrasse 42 8001;8.53685474395752;47.37529754638672
Lintheschergasse 10;8001;Zürich;650;https://www.homegate.ch/rent/3001764750;Lintheschergasse 10 8001;8.538741111755371;47.37600326538086
Bahnhofstrasse 98;8001;Zürich;720;https://www.homegate.ch/rent/3001704266;Bahnhofstrasse 98 8001;8.539673805236816;47.376094818115234
Freigutstrasse 40;8001;Zürich;380;https://www.homegate.ch/rent/3001311967;Freigutstrasse 40 8001;8.53011703491211;47.36915969848633
Löwenstrasse 12;8001;Zürich;495;https://www.homegate.ch/rent/3001653783;Löwenstrasse 12 8001;8.535168647766113;47.37357711791992
Schifflände 22;8001;Zürich;490;https://www.homegate.ch/rent/3001645176;Schifflände 22 8001;8.544538497924805;47.36882781982422
Bahnhofstrasse 100;8001;Zürich;1065.16;https://www.homegate.ch/rent/3001261849;Bahnhofstrasse 100 8001;8.539724349975586;47.376182556152344
Glockengasse 18;8001;Zürich;600;https://www.homegate.ch/rent/3001503422;Glockengasse 18 8001;8.539992332458496;47.3720817565918
Bahnhofstrase 73;8001;Zürich;600;https://www.homegate.ch/rent/3001709852;Bahnhofstrase 73 8001;8.538329124450684;47.37445831298828
Bahnhofstrasse 100;8001;Zürich;1142.96;https://www.homegate.ch/rent/3001261623;Bahnhofstrasse 100 8001;8.539724349975586;47.376182556152344
Uraniastrasse 12;8001;Zürich;590;https://www.homegate.ch/rent/3000482581;Uraniastrasse 12 8001;8.536787986755371;47.37466812133789
The Circle 09;8001;Zürich;600;https://www.homegate.ch/rent/3001258488;The Circle 09 8001; 8.564985950061656;47.45078689722823
Uraniastrasse 31;8001;Zürich;520;https://www.homegate.ch/rent/3001071548;Uraniastrasse 31 8001;8.535984992980957;47.37348937988281
Bahnhofstrasse 81;8001;Zürich;790;https://www.homegate.ch/rent/3001033889;Bahnhofstrasse 81 8001;8.53909969329834;47.375919342041016
Pelikanstrasse 18;8001;Zürich;650;https://www.homegate.ch/rent/3001473472;Pelikanstrasse 18 8001;8.536371231079102;47.3717155456543
Bahnhofstrasse 28;8001;Zürich;850;https://www.homegate.ch/rent/3001452343;Bahnhofstrasse 28 8001;8.53952693939209;47.369815826416016
Uraniastrasse 31;8001;Zürich;568;https://www.homegate.ch/rent/3001369144;Uraniastrasse 31 8001;8.535984992980957;47.37348937988281
Limmatquai 4;8001;Zürich;850;https://www.homegate.ch/rent/3001720191;Limmatquai 4 8001;8.544960021972656;47.36799621582031
Bahnhofplatz 2;8001;Zürich;790;https://www.homegate.ch/rent/3001483744;Bahnhofplatz 2 8001;8.540830612182617;47.37682342529297
Löwenstrasse 32;8001;Zürich;Price on request;https://www.homegate.ch/rent/3001333473;Löwenstrasse 32 8001;8.536298751831055;47.37472915649414
Limmatquai 1;8001;Zürich;Price on request;https://www.homegate.ch/rent/3001733630;Limmatquai 1 8001;8.544623374938965;47.36772918701172
Bahnhofstrasse 67;8001;Zürich;Price on request;https://www.homegate.ch/rent/3001744287;Bahnhofstrasse 67 8001;8.53801441192627;47.37369155883789
Stadelhoferstr. 18;8001;Zürich;Price on request;https://www.homegate.ch/rent/3000891489;Stadelhoferstr. 18 8001;8.547636985778809;47.36698532104492
Löwenstrasse 55;8001;Zürich;Price on request;https://www.homegate.ch/rent/3001704310;Löwenstrasse 55 8001;8.537649154663086;47.376609802246094
Limmatquai 144 / Zähringerstr.;8001;Zürich;Price on request;https://www.homegate.ch/rent/3001637286;Limmatquai 144 / Zähringerstr. 8001;8.544174194335938;47.376564025878906
Zähringerstrasse 24;8001;Zürich;Price on request;https://www.homegate.ch/rent/3001650096;Zähringerstrasse 24 8001;8.544767379760742;47.37520980834961
Limmatquai 52;8001;Zürich;Price on request;https://www.homegate.ch/rent/3001364076;Limmatquai 52 8001;8.543158531188965;47.37138748168945
Basteiplatz 7;8001;Zürich;Price on request;https://www.homegate.ch/rent/3001758807;Basteiplatz 7 8001;8.535841941833496;47.36969757080078
General-Guisan-Quai 30;8001;Zürich;Price on request;https://www.homegate.ch/rent/3001735544;General-Guisan-Quai 30 8001; 8.535998186007488;47.36434935242454
Sihlstrasse 3;8001;Zürich;Price on request;https://www.homegate.ch/rent/3001724740;Sihlstrasse 3 8001;8.537691116333008;47.37370300292969
Glärnischstrasse 8;8001;Zürich;Price on request;https://www.homegate.ch/rent/3001495793;Glärnischstrasse 8 8001; 8.538871759020203;47.366851645913705
Selnaustrasse 32;8001;Zürich;Price on request;https://www.homegate.ch/rent/3001724736;Selnaustrasse 32 8001;8.5316743850708;47.37123489379883
Bahnhofstrasse 69a;8001;Zürich;Price on request;https://www.homegate.ch/rent/3001730138;Bahnhofstrasse 69a 8001;8.538202285766602;47.37419128417969
Löwenstrasse 25;8001;Zürich;Price on request;https://www.homegate.ch/rent/3001124348;Löwenstrasse 25 8001;8.535500526428223;47.374420166015625
Bahnhofstrasse 69a;8001;Zürich;Price on request;https://www.homegate.ch/rent/3001763636;Bahnhofstrasse 69a 8001;8.538202285766602;47.37419128417969
Bahnhofstrasse 71;8001;Zürich;Price on request;https://www.homegate.ch/rent/3001519840;Bahnhofstrasse 71 8001;8.53826904296875;47.37432861328125
Bahnhofstrasse 71;8001;Zürich;Price on request;https://www.homegate.ch/rent/3001756827;Bahnhofstrasse 71 8001;8.53826904296875;47.37432861328125
Bahnhofstrasse 108;8001;Zürich;Price on request;https://www.homegate.ch/rent/3001673248;Bahnhofstrasse 108 8001;8.539981842041016;47.37666320800781
Uraniastrasse 14;8001;Zürich;Price on request;https://www.homegate.ch/rent/3001764335;Uraniastrasse 14 8001;8.536569595336914;47.37455749511719
Talstrasse 41;8001;Zürich;Price on request;https://www.homegate.ch/rent/3001608311;Talstrasse 41 8001;8.537249565124512;47.36930465698242
Bahnhofstrasse 12;8001;Zürich;Price on request;https://www.homegate.ch/rent/3001668468;Bahnhofstrasse 12 8001;8.540068626403809;47.368282318115234
Alfred-Escher-Strasse 5;8002;Zürich;375;https://www.homegate.ch/rent/3001076144;Alfred-Escher-Strasse 5 8002;8.532698631286621;47.3654899597168
Parkring 7;8002;Zürich;402;https://www.homegate.ch/rent/3001467605;Parkring 7 8002;8.53193187713623;47.36679458618164
Richard Wagner-Strasse 26;8002;Zürich;520;https://www.homegate.ch/rent/3001635007;Richard Wagner-Strasse 26 8002;8.53259563446045;47.359474182128906
Seestrasse 160;8002;Zürich;274.93;https://www.homegate.ch/rent/3001239358;Seestrasse 160 8002;8.531987190246582;47.35566329956055
Beethovenstrasse 24;8002;Zürich;450;https://www.homegate.ch/rent/3001704254;Beethovenstrasse 24 8002;8.536630630493164;47.366676330566406
Freigutstrasse 26;8002;Zürich;440;https://www.homegate.ch/rent/3001491125;Freigutstrasse 26 8002;8.53105640411377;47.36844253540039
Tödistrasse 36;8002;Zürich;491.80;https://www.homegate.ch/rent/3001746909;Tödistrasse 36 8002;8.534516334533691;47.366703033447266
Tödistr. 67;8002;Zürich;540;https://www.homegate.ch/rent/3001669548;Tödistr. 67 8002;8.532453536987305;47.36894226074219
Stockerstrasse 10;8002;Zürich;550;https://www.homegate.ch/rent/3001751120;Stockerstrasse 10 8002;8.53647518157959;47.3653450012207
Jenatschstrasse 1;8002;Zürich;442;https://www.homegate.ch/rent/3001621667;Jenatschstrasse 1 8002;8.534124374389648;47.36357879638672
Tödistr. 46;8002;Zürich;491;https://www.homegate.ch/rent/3000917445;Tödistr. 46 8002;8.533926010131836;47.36750030517578
Dianastrasse 9;8002;Zürich;520;https://www.homegate.ch/rent/3000849313;Dianastrasse 9 8002;8.533132553100586;47.368656158447266
Dreikönigstrasse 31a;8002;Zürich;1207.20;https://www.homegate.ch/rent/3001261720;Dreikönigstrasse 31a 8002;8.535018920898438;47.36639404296875
Alfred-Escher-Strasse 50-60;8002;Zürich;560;https://www.homegate.ch/rent/3000729916;Alfred-Escher-Strasse 50-60 8002;8.533811569213867;47.361297607421875
Freigutstrasse 16;8002;Zürich;500;https://www.homegate.ch/rent/3000153225;Freigutstrasse 16 8002;8.531609535217285;47.368011474609375
Rieterstrasse 6;8002;Zürich;368;https://www.homegate.ch/rent/3001615038;Rieterstrasse 6 8002;8.525476455688477;47.36067199707031
Beethovenstrasse 33;8002;Zürich;810;https://www.homegate.ch/rent/3001775156;Beethovenstrasse 33 8002;8.535783767700195;47.36715316772461
Dianastrasse 5;8002;Zürich;550;https://www.homegate.ch/rent/3000808051;Dianastrasse 5 8002;8.533564567565918;47.368804931640625
Dianastrasse 5;8002;Zürich;550;https://www.homegate.ch/rent/3000076661;Dianastrasse 5 8002;8.533564567565918;47.368804931640625
Giesshübelstrasse 45;8002;Zürich;Price on request;https://www.homegate.ch/rent/3001397326;Giesshübelstrasse 45 8002; 8.52028123203247;47.35770748898547
Giesshübelstrasse 45;8002;Zürich;Price on request;https://www.homegate.ch/rent/3001662264;Giesshübelstrasse 45 8002; 8.52028123203247;47.35770748898547
Freigutstrasse 12 + 14;8002;Zürich;Price on request;https://www.homegate.ch/rent/3000842969;Freigutstrasse 12 + 14 8002;8.532320022583008;47.36747741699219
Sihlberg 10;8002;Zürich;Price on request;https://www.homegate.ch/rent/3001500259;Sihlberg 10 8002;8.525043487548828;47.363277435302734
Sihlberg 10;8002;Zürich;Price on request;https://www.homegate.ch/rent/3001500251;Sihlberg 10 8002;8.525043487548828;47.363277435302734
Gartenstrasse;8002;Zürich;Price on request;https://www.homegate.ch/rent/3001619083;Gartenstrasse 8002;8.534747123718262;47.36859893798828
Beethovenstr. 20;8002;Zürich;Price on request;https://www.homegate.ch/rent/3001462965;Beethovenstr. 20 8002;8.536792755126953;47.36647033691406
Beethovenstr. 20;8002;Zürich;Price on request;https://www.homegate.ch/rent/3001461711;Beethovenstr. 20 8002;8.536792755126953;47.36647033691406
Räffelstrasse 20;8002;Zürich;Price on request;https://www.homegate.ch/rent/3001703538;Räffelstrasse 20 8002; 8.513627424640474;47.3637529895225
Genferstrasse 6;8002;Zürich;Price on request;https://www.homegate.ch/rent/3001764340;Genferstrasse 6 8002;8.535000801086426;47.364349365234375
Stockerstrasse 34;8002;Zürich;Price on request;https://www.homegate.ch/rent/3001733628;Stockerstrasse 34 8002;8.535231590270996;47.367034912109375
Tödistrasse 48;8002;Zürich;Price on request;https://www.homegate.ch/rent/3001756622;Tödistrasse 48 8002;8.533804893493652;47.36766815185547
Stockerstrasse 34;8002;Zürich;Price on request;https://www.homegate.ch/rent/3001768259;Stockerstrasse 34 8002;8.535231590270996;47.367034912109375
Zweierstrasse 129;8003;Zürich;300;https://www.homegate.ch/rent/3001776316;Zweierstrasse 129 8003;8.520133972167969;47.37090301513672
Aemtlerstrasse 112;8003;Zürich;331.11;https://www.homegate.ch/rent/3001464186;Aemtlerstrasse 112 8003;8.51219654083252;47.37510681152344
Aemtlerstrasse 96a;8003;Zürich;313.32;https://www.homegate.ch/rent/3001700453;Aemtlerstrasse 96a 8003;8.513662338256836;47.374664306640625
Letzigraben 89;8003;Zürich;270;https://www.homegate.ch/rent/3001462396;Letzigraben 89 8003;8.499475479125977;47.37800216674805
Zentralstrasse 156;8003;Zürich;210;https://www.homegate.ch/rent/3001190755;Zentralstrasse 156 8003;8.514780044555664;47.37583923339844
Europaallee 41;8004;Zürich;39.60;https://www.homegate.ch/rent/108839848;Europaallee 41 8004;8.53201675415039;47.3787956237793
Europaallee 41;8004;Zürich;90;https://www.homegate.ch/rent/108839852;Europaallee 41 8004;8.53201675415039;47.3787956237793
Hohlstrasse 192;8004;Zürich;298.80;https://www.homegate.ch/rent/3001534667;Hohlstrasse 192 8004;8.517414093017578;47.381595611572266
Weberstrasse 21;8004;Zürich;294;https://www.homegate.ch/rent/3001603634;Weberstrasse 21 8004;8.527434349060059;47.3709831237793
Norastrasse 5;8004;Zürich;250;https://www.homegate.ch/rent/3001761020;Norastrasse 5 8004;8.50741958618164;47.38034439086914
Badenerstrasse 144;8004;Zürich;330;https://www.homegate.ch/rent/3001709425;Badenerstrasse 144 8004;8.522456169128418;47.374488830566406
Badenerstrasse 144;8004;Zürich;330;https://www.homegate.ch/rent/3001713818;Badenerstrasse 144 8004;8.522456169128418;47.374488830566406
Badenerstrasse 47;8004;Zürich;588.22;https://www.homegate.ch/rent/3001261695;Badenerstrasse 47 8004;8.528548240661621;47.37317657470703
Stauffacherstrasse 45;8004;Zürich;440;https://www.homegate.ch/rent/3001631100;Stauffacherstrasse 45 8004;8.527688026428223;47.374515533447266
Badenerstrasse 141 rechts;8004;Zürich;402.94;https://www.homegate.ch/rent/3001694329;Badenerstrasse 141 rechts 8004;8.522504806518555;47.37415313720703
Lutherstrasse 2;8004;Zürich;420;https://www.homegate.ch/rent/3001775725;Lutherstrasse 2 8004;8.529879570007324;47.37372589111328
Freischützgasse 1;8004;Zürich;455;https://www.homegate.ch/rent/3001537106;Freischützgasse 1 8004;8.532404899597168;47.3770751953125
Wengistrasse 7;8004;Zürich;415;https://www.homegate.ch/rent/3001481546;Wengistrasse 7 8004;8.522947311401367;47.375030517578125
Wengistrasse 7;8004;Zürich;380;https://www.homegate.ch/rent/3001525722;Wengistrasse 7 8004;8.522947311401367;47.375030517578125
Wengistrasse 7;8004;Zürich;415;https://www.homegate.ch/rent/3001481545;Wengistrasse 7 8004;8.522947311401367;47.375030517578125
Kasernenstr. 77 A/B;8004;Zürich;541;https://www.homegate.ch/rent/3001704295;Kasernenstr. 77 A/B 8004;8.533889770507812;47.376220703125
Militärstrasse 36;8004;Zürich;556;https://www.homegate.ch/rent/3001608167;Militärstrasse 36 8004;8.532125473022461;47.37725067138672
Wengistrasse 7;8004;Zürich;415;https://www.homegate.ch/rent/3001481542;Wengistrasse 7 8004;8.522947311401367;47.375030517578125
Müllerstrasse 71;8004;Zürich;5500;https://www.homegate.ch/rent/3001336323;Müllerstrasse 71 8004;8.528377532958984;47.37608337402344
Badenerstrasse 47;8004;Zürich;1606.46;https://www.homegate.ch/rent/3001261681;Badenerstrasse 47 8004;8.528548240661621;47.37317657470703
Engelstrasse 6;8004;Zürich;415;https://www.homegate.ch/rent/3001481544;Engelstrasse 6 8004;8.522491455078125;47.374961853027344
Engelstrasse 6;8004;Zürich;415;https://www.homegate.ch/rent/3001481543;Engelstrasse 6 8004;8.522491455078125;47.374961853027344
Badenerstrasse 15;8004;Zürich;Price on request;https://www.homegate.ch/rent/3001397272;Badenerstrasse 15 8004;8.530344009399414;47.373443603515625
Badenerstrasse 15;8004;Zürich;Price on request;https://www.homegate.ch/rent/3001110818;Badenerstrasse 15 8004;8.530344009399414;47.373443603515625
Freischützgasse 10;8004;Zürich;Price on request;https://www.homegate.ch/rent/3001704265;Freischützgasse 10 8004;8.533037185668945;47.3771858215332
Hardturmstrasse 105;8005;Zürich;260;https://www.homegate.ch/rent/3001395841;Hardturmstrasse 105 8005;8.51577091217041;47.391685485839844
Pfingstweidstrasse 60;8005;Zürich;350;https://www.homegate.ch/rent/3001764093;Pfingstweidstrasse 60 8005;8.514150619506836;47.38966369628906
Hardturmstr.161/Förrlibuck 150;8005;Zürich;320;https://www.homegate.ch/rent/3001722992;Hardturmstr.161/Förrlibuck 150 8005;8.511878967285156;47.39333724975586
Josefstrasse 218;8005;Zürich;320;https://www.homegate.ch/rent/3001503747;Josefstrasse 218 8005;8.522645950317383;47.387535095214844
Pfingstweidstrasse 60;8005;Zürich;400;https://www.homegate.ch/rent/3000547696;Pfingstweidstrasse 60 8005;8.514150619506836;47.38966369628906
Limmatstrasse 264/266;8005;Zürich;560;https://www.homegate.ch/rent/3001769418;Limmatstrasse 264/266 8005;8.526095390319824;47.38866424560547
Hardturmstrasse 253;8005;Zürich;Price on request;https://www.homegate.ch/rent/3001733945;Hardturmstrasse 253 8005;8.508553504943848;47.3935546875
Hardturmstrasse 253;8005;Zürich;Price on request;https://www.homegate.ch/rent/3001492780;Hardturmstrasse 253 8005;8.508553504943848;47.3935546875
Limmatstrasse 264/266;8005;Zürich;Price on request;https://www.homegate.ch/rent/3000982072;Limmatstrasse 264/266 8005;8.52582836151123;47.38882827758789
Röntgenstrasse 16;8005;Zürich;Price on request;https://www.homegate.ch/rent/3000779343;Röntgenstrasse 16 8005;8.528348922729492;47.382728576660156
Hardstrasse 201;8005;Zürich;Price on request;https://www.homegate.ch/rent/3000913959;Hardstrasse 201 8005;8.51737117767334;47.386226654052734
Hardstrasse 201;8005;Zürich;Price on request;https://www.homegate.ch/rent/3001311505;Hardstrasse 201 8005;8.51737117767334;47.386226654052734
Pfingstweidstrasse 106;8005;Zürich;Price on request;https://www.homegate.ch/rent/3001507017;Pfingstweidstrasse 106 8005;8.507978439331055;47.39120864868164
Stampfenbachstrasse 32;8006;Zürich;403;https://www.homegate.ch/rent/3001300012;Stampfenbachstrasse 32 8006;8.543595314025879;47.37928009033203
Stampfenbachstr. 63;8006;Zürich;420;https://www.homegate.ch/rent/3001766597;Stampfenbachstr. 63 8006;8.542074203491211;47.3811149597168
Universitätstrasse 63;8006;Zürich;365;https://www.homegate.ch/rent/3001714572;Universitätstrasse 63 8006;8.547964096069336;47.381839752197266
Ottikerstrasse 14;8006;Zürich;529.95;https://www.homegate.ch/rent/3001661700;Ottikerstrasse 14 8006;8.543998718261719;47.38561248779297
Ottikerstrasse 14;8006;Zürich;Price on request;https://www.homegate.ch/rent/3001642195;Ottikerstrasse 14 8006;8.543998718261719;47.38561248779297
Forchstrasse 280;8008;Zürich;300;https://www.homegate.ch/rent/3001451459;Forchstrasse 280 8008;8.572681427001953;47.35722351074219
Florastrasse 44;8008;Zürich;450;https://www.homegate.ch/rent/3001662265;Florastrasse 44 8008;8.552454948425293;47.36154556274414
Tuggenerstrasse;8008;Zürich;406.45;https://www.homegate.ch/rent/3001774318;Tuggenerstrasse 8008;8.555234909057617;47.35748291015625
Forchstrasse 2;8008;Zürich;400;https://www.homegate.ch/rent/3001714791;Forchstrasse 2 8008;8.554667472839355;47.36447525024414
Klausstrasse 43;8008;Zürich;350;https://www.homegate.ch/rent/3001721720;Klausstrasse 43 8008;8.55186653137207;47.359378814697266
Seefeldstrasse 134;8008;Zürich;547.57;https://www.homegate.ch/rent/3000385352;Seefeldstrasse 134 8008;8.554426193237305;47.35749816894531
Seefeldstrasse 104;8008;Zürich;504.39;https://www.homegate.ch/rent/3001733867;Seefeldstrasse 104 8008;8.552678108215332;47.359283447265625
Klausstrasse 19;8008;Zürich;460;https://www.homegate.ch/rent/3001696576;Klausstrasse 19 8008;8.549992561340332;47.35910415649414
Dufourstrasse 24;8008;Zürich;445.95;https://www.homegate.ch/rent/3001733089;Dufourstrasse 24 8008;8.547530174255371;47.36371994018555
Seefeldstrasse 277 A;8008;Zürich;450;https://www.homegate.ch/rent/3001700559;Seefeldstrasse 277 A 8008;8.563876152038574;47.348793029785156
Zeltweg 67;8008;Zürich;420;https://www.homegate.ch/rent/3001740395;Zeltweg 67 8008; 8.554261443121142;47.367088512040596
Klausstrasse 43;8008;Zürich;350;https://www.homegate.ch/rent/3001645056;Klausstrasse 43 8008;8.55186653137207;47.359378814697266
Hallenstrasse 8;8008;Zürich;595;https://www.homegate.ch/rent/3001691953;Hallenstrasse 8 8008;8.54866886138916;47.36317825317383
Wiesenstrasse 8;8008;Zürich;430;https://www.homegate.ch/rent/3001449772;Wiesenstrasse 8 8008;8.551630973815918;47.36200714111328
Seefeldstrasse 69;8008;Zürich;1114.42;https://www.homegate.ch/rent/3001261714;Seefeldstrasse 69 8008;8.551620483398438;47.3612060546875
Bellerivestrasse 203;8008;Zürich;390;https://www.homegate.ch/rent/3001166548;Bellerivestrasse 203 8008;8.557881355285645;47.35315704345703
Bellerivestrasse 203;8008;Zürich;500;https://www.homegate.ch/rent/3001136338;Bellerivestrasse 203 8008;8.557881355285645;47.35315704345703
Dufourstrasse 49;8008;Zürich;1746.77;https://www.homegate.ch/rent/3001261796;Dufourstrasse 49 8008;8.549212455749512;47.362239837646484
Bellerivestrasse 201;8008;Zürich;525;https://www.homegate.ch/rent/3001040115;Bellerivestrasse 201 8008;8.557567596435547;47.35295867919922
Färberstrasse 3;8008;Zürich;Price on request;https://www.homegate.ch/rent/3001406554;Färberstrasse 3 8008;8.548376083374023;47.36205291748047
Färberstrasse 3;8008;Zürich;Price on request;https://www.homegate.ch/rent/3001477369;Färberstrasse 3 8008;8.548376083374023;47.36205291748047
Färberstrasse 3;8008;Zürich;Price on request;https://www.homegate.ch/rent/3001406555;Färberstrasse 3 8008;8.548376083374023;47.36205291748047
Bellerivestrasse 17;8008;Zürich;Price on request;https://www.homegate.ch/rent/3000138848;Bellerivestrasse 17 8008;8.549602508544922;47.35941696166992
Bellerivestrasse 201;8008;Zürich;Price on request;https://www.homegate.ch/rent/3001407224;Bellerivestrasse 201 8008;8.557567596435547;47.35295867919922
Seefeldstrasse 134;8008;Zürich;Price on request;https://www.homegate.ch/rent/3001580824;Seefeldstrasse 134 8008;8.554426193237305;47.35749816894531
Utoquai 55;8008;Zürich;Price on request;https://www.homegate.ch/rent/3001775921;Utoquai 55 8008;8.548053741455078;47.361572265625
Bergstrasse 107;8032;Zürich;545;https://www.homegate.ch/rent/110314730;Bergstrasse 107 8032;8.564413070678711;47.36863708496094
Bergstrasse 138;8032;Zürich;181;https://www.homegate.ch/rent/3001713549;Bergstrasse 138 8032;8.565072059631348;47.36628723144531
Minervastrasse 23/25;8032;Zürich;408;https://www.homegate.ch/rent/3001721536;Minervastrasse 23/25 8032;8.55431079864502;47.36796951293945
Forchstrasse 60;8032;Zürich;290;https://www.homegate.ch/rent/3001753578;Forchstrasse 60 8032; 8.55797971299485;47.36289635622771
Witikonerstrasse 80;8032;Zürich;329.17;https://www.homegate.ch/rent/3001765706;Witikonerstrasse 80 8032;8.57103443145752;47.36097717285156
Hottingerstrasse 17;8032;Zürich;470;https://www.homegate.ch/rent/3001761099;Hottingerstrasse 17 8032;8.551034927368164;47.37025833129883
Zeltweg 67;8032;Zürich;420;https://www.homegate.ch/rent/3001662262;Zeltweg 67 8032;8.553580284118652;47.366966247558594
Hammerstrasse 81;8032;Zürich;300;https://www.homegate.ch/rent/3001500701;Hammerstrasse 81 8032;8.564730644226074;47.360107421875
Sempacherstrasse 15;8032;Zürich;300;https://www.homegate.ch/rent/3001407040;Sempacherstrasse 15 8032;8.566781044006348;47.36320877075195
Hofackerstrasse 32;8032;Zürich;345;https://www.homegate.ch/rent/3001527205;Hofackerstrasse 32 8032;8.564270973205566;47.36131286621094
Römerhofplatz 5;8032;Zürich;520;https://www.homegate.ch/rent/3001733919;Römerhofplatz 5 8032;8.560726165771484;47.36827087402344
Hottingerstrasse 21;8032;Zürich;Price on request;https://www.homegate.ch/rent/3001740505;Hottingerstrasse 21 8032;8.551833152770996;47.37009048461914
Hottingerstrasse 21;8032;Zürich;Price on request;https://www.homegate.ch/rent/3001740504;Hottingerstrasse 21 8032;8.551833152770996;47.37009048461914
Hottingerstrasse 21;8032;Zürich;Price on request;https://www.homegate.ch/rent/3001740509;Hottingerstrasse 21 8032;8.551833152770996;47.37009048461914
Witikonerstrasse 59a;8032;Zürich;Price on request;https://www.homegate.ch/rent/3001604432;Witikonerstrasse 59a 8032;8.569632530212402;47.361820220947266
Carmenstrasse 28;8032;Zürich;Price on request;https://www.homegate.ch/rent/3001507021;Carmenstrasse 28 8032;8.562373161315918;47.36847686767578
Röschibachstrasse 22;8037;Zürich;298.70;https://www.homegate.ch/rent/3001760646;Röschibachstrasse 22 8037;8.524651527404785;47.39268112182617
Dorfstrasse 29;8037;Zürich;275;https://www.homegate.ch/rent/3001715529;Dorfstrasse 29 8037;8.522562026977539;47.39427185058594
Seestrasse 353;8038;Zürich;165;https://www.homegate.ch/rent/3000071908;Seestrasse 353 8038;8.533407211303711;47.34623718261719
Seestrasse 342;8038;Zürich;420;https://www.homegate.ch/rent/3001733631;Seestrasse 342 8038;8.532719612121582;47.34669876098633
Staubstrasse 15;8038;Zürich;243.69;https://www.homegate.ch/rent/3001678027;Staubstrasse 15 8038;8.531328201293945;47.34693908691406
Bellariastrasse 51;8038;Zürich;324.71;https://www.homegate.ch/rent/3001748325;Bellariastrasse 51 8038;8.530509948730469;47.350494384765625
Seestrasse 356;8038;Zürich;Price on request;https://www.homegate.ch/rent/3001303567;Seestrasse 356 8038;8.533201217651367;47.34543228149414
Seestrasse 356;8038;Zürich;Price on request;https://www.homegate.ch/rent/3001689162;Seestrasse 356 8038;8.533201217651367;47.34543228149414
Seestrasse 356;8038;Zürich;Price on request;https://www.homegate.ch/rent/3001303569;Seestrasse 356 8038;8.533201217651367;47.34543228149414
Allmendstrasse 140;8041;Zürich;333;https://www.homegate.ch/rent/3001509182;Allmendstrasse 140 8041;8.518407821655273;47.33855438232422
Maneggstrasse 45;8041;Zürich;280;https://www.homegate.ch/rent/3000795978;Maneggstrasse 45 8041;8.520247459411621;47.34130096435547
Allmendstrasse 140;8041;Zürich;333;https://www.homegate.ch/rent/3001509183;Allmendstrasse 140 8041;8.518407821655273;47.33855438232422
Maneggstrasse 17;8041;Zürich;280;https://www.homegate.ch/rent/3000795976;Maneggstrasse 17 8041;8.520395278930664;47.34219741821289
Allmendstrasse 140;8041;Zürich;333;https://www.homegate.ch/rent/3001654944;Allmendstrasse 140 8041;8.518407821655273;47.33855438232422
Staffelstrasse 8;8045;Zürich;295.84;https://www.homegate.ch/rent/3001678252;Staffelstrasse 8 8045;8.521341323852539;47.36125183105469
Grubenstrasse 45;8045;Zürich;190;https://www.homegate.ch/rent/3001703492;Grubenstrasse 45 8045;8.512524604797363;47.36115646362305
Kalanderplatz 1;8045;Zürich;976.58;https://www.homegate.ch/rent/3001261673;Kalanderplatz 1 8045;8.523214340209961;47.35803985595703
Räffelstrasse 10;8045;Zürich;285;https://www.homegate.ch/rent/3001486543;Räffelstrasse 10 8045;8.514719009399414;47.363121032714844
Binzstrasse 29;8045;Zürich;290;https://www.homegate.ch/rent/3001766481;Binzstrasse 29 8045;8.513433456420898;47.361968994140625
Staffelstrasse 8;8045;Zürich;280;https://www.homegate.ch/rent/3000975896;Staffelstrasse 8 8045;8.521341323852539;47.36125183105469
Räffelstrasse 20;8045;Zürich;305;https://www.homegate.ch/rent/3001746877;Räffelstrasse 20 8045;8.513775825500488;47.363487243652344
Manessestrasse 85;8045;Zürich;330;https://www.homegate.ch/rent/3001318767;Manessestrasse 85 8045;8.522039413452148;47.3656005859375
Giesshübelstrasse 45;8045;Zürich;Price on request;https://www.homegate.ch/rent/3001662263;Giesshübelstrasse 45 8045;8.520201683044434;47.357566833496094
Grubenstrasse 54;8045;Zürich;Price on request;https://www.homegate.ch/rent/3000644236;Grubenstrasse 54 8045;8.510621070861816;47.36275100708008
Räffelstrasse 10;8045;Zürich;Price on request;https://www.homegate.ch/rent/3001703532;Räffelstrasse 10 8045;8.514719009399414;47.363121032714844
Räffelstrasse 26;8045;Zürich;Price on request;https://www.homegate.ch/rent/3001764251;Räffelstrasse 26 8045;8.512774467468262;47.36362838745117
Binzmühlestrasse 405;8046;Zürich;173.33;https://www.homegate.ch/rent/3001526501;Binzmühlestrasse 405 8046;8.520365715026855;47.41439437866211
Mühlackerstrasse 199;8046;Zürich;150;https://www.homegate.ch/rent/3001700232;Mühlackerstrasse 199 8046;8.496910095214844;47.425453186035156
Wehntalerstrasse 351;8046;Zürich;290;https://www.homegate.ch/rent/3001663989;Wehntalerstrasse 351 8046;8.521098136901855;47.41313171386719
Dennlerstr. 24;8047;Zürich;141;https://www.homegate.ch/rent/3000799650;Dennlerstr. 24 8047;8.497806549072266;47.381561279296875
Albisriederstr. 243b (I-40);8047;Zürich;150;https://www.homegate.ch/rent/3001372128;Albisriederstr. 243b (I-40) 8047;8.49482250213623;47.37870407104492
Freilagerstrasse 40;8047;Zürich;220;https://www.homegate.ch/rent/3001260697;Freilagerstrasse 40 8047;8.491324424743652;47.37938690185547
Rautistrasse 33;8047;Zürich;Price on request;https://www.homegate.ch/rent/3001593185;Rautistrasse 33 8047;8.49167537689209;47.38092041015625
Hermetschloostrasse 77;8048;Zürich;240;https://www.homegate.ch/rent/3001571416;Hermetschloostrasse 77 8048;8.47395133972168;47.393924713134766
Buckhauserstrasse 1;8048;Zürich;260;https://www.homegate.ch/rent/3001622729;Buckhauserstrasse 1 8048;8.4943265914917;47.38694381713867
Badenerstrasse 808;8048;Zürich;195;https://www.homegate.ch/rent/3001250943;Badenerstrasse 808 8048;8.474801063537598;47.393184661865234
Badenerstrasse 549;8048;Zürich;407.89;https://www.homegate.ch/rent/3001261620;Badenerstrasse 549 8048;8.49910831451416;47.383155822753906
Hermetschloostrasse 77;8048;Zürich;190;https://www.homegate.ch/rent/3001503404;Hermetschloostrasse 77 8048;8.47395133972168;47.393924713134766
Badenerstrasse 571;8048;Zürich;229;https://www.homegate.ch/rent/3001461473;Badenerstrasse 571 8048;8.496416091918945;47.384376525878906
Bändliweg 20;8048;Zürich;250;https://www.homegate.ch/rent/3001719732;Bändliweg 20 8048;8.483774185180664;47.394840240478516
Aargauerstrasse 250/Geerenweg 2;8048;Zürich;317.18;https://www.homegate.ch/rent/3000597932;Aargauerstrasse 250/Geerenweg 2 8048;8.489799499511719;47.39304733276367
Badenerstrasse 571;8048;Zürich;235;https://www.homegate.ch/rent/3001537631;Badenerstrasse 571 8048;8.496416091918945;47.384376525878906
Baslerstrasse 30;8048;Zürich;305;https://www.homegate.ch/rent/3001552230;Baslerstrasse 30 8048;8.502718925476074;47.38493728637695
Hermetschloostrasse 77;8048;Zürich;150;https://www.homegate.ch/rent/3001503420;Hermetschloostrasse 77 8048;8.47395133972168;47.393924713134766
Max Höggerstrasse 2;8048;Zürich;245;https://www.homegate.ch/rent/3000215264;Max Höggerstrasse 2 8048; 8.48963820504639;47.39380923458008
Baslerstrasse 60;8048;Zürich;320;https://www.homegate.ch/rent/3001678745;Baslerstrasse 60 8048;8.496356964111328;47.38669967651367
Hohlstrasse 614;8048;Zürich;373;https://www.homegate.ch/rent/3000991414;Hohlstrasse 614 8048;8.483803749084473;47.39212417602539
Flurstrasse 32;8048;Zürich;270;https://www.homegate.ch/rent/3001104179;Flurstrasse 32 8048;8.496048927307129;47.38623809814453
Buckhauserstrasse 24;8048;Zürich;215;https://www.homegate.ch/rent/3001642064;Buckhauserstrasse 24 8048;8.49199104309082;47.384761810302734
Baslerstrasse 60;8048;Zürich;320;https://www.homegate.ch/rent/3001531317;Baslerstrasse 60 8048;8.496356964111328;47.38669967651367
Max-Höggerstrasse 2;8048;Zürich;240;https://www.homegate.ch/rent/3001751455;Max-Höggerstrasse 2 8048; 8.48963820504639;47.39380923458008
Hohlstrasse 535;8048;Zürich;190;https://www.homegate.ch/rent/3001060449;Hohlstrasse 535 8048;8.492265701293945;47.3896598815918
Baslerstrasse 60;8048;Zürich;320;https://www.homegate.ch/rent/3001746494;Baslerstrasse 60 8048;8.496356964111328;47.38669967651367
Bändliweg 20;8048;Zürich;250;https://www.homegate.ch/rent/3001686312;Bändliweg 20 8048;8.483774185180664;47.394840240478516
Buckhauserstrasse 22;8048;Zürich;220;https://www.homegate.ch/rent/3000797689;Buckhauserstrasse 22 8048;8.492335319519043;47.38508987426758
Baslerstrasse 60;8048;Zürich;320;https://www.homegate.ch/rent/3001028170;Baslerstrasse 60 8048;8.496356964111328;47.38669967651367
Juchstrasse 9;8048;Zürich;260;https://www.homegate.ch/rent/2148036345;Juchstrasse 9 8048;8.482757568359375;47.39459991455078
Vulkanstrasse 106;8048;Zürich;320;https://www.homegate.ch/rent/3001623634;Vulkanstrasse 106 8048;8.485942840576172;47.39305877685547
Flurstr. 30;8048;Zürich;Price on request;https://www.homegate.ch/rent/3001554876;Flurstr. 30 8048;8.496068000793457;47.38640213012695
Flüelastr. 7;8048;Zürich;Price on request;https://www.homegate.ch/rent/3001630630;Flüelastr. 7 8048;8.497018814086914;47.383575439453125
Baslerstrasse 30;8048;Zürich;Price on request;https://www.homegate.ch/rent/3000532034;Baslerstrasse 30 8048;8.502718925476074;47.38493728637695
Vulkanplatz 8;8048;Zürich;Price on request;https://www.homegate.ch/rent/3000767872;Vulkanplatz 8 8048;8.491771697998047;47.39175033569336
Naglerwiesenstrasse 4;8049;Zürich;224.39;https://www.homegate.ch/rent/3000754000;Naglerwiesenstrasse 4 8049;8.483057022094727;47.41363525390625
Limmattalstrasse 180;8049;Zürich;Price on request;https://www.homegate.ch/rent/3001402101;Limmattalstrasse 180 8049;8.499128341674805;47.40221405029297
Hagenholzstrasse 83;8050;Zürich;270;https://www.homegate.ch/rent/3001732597;Hagenholzstrasse 83 8050;8.559627532958984;47.414794921875
Gubelstrasse 28;8050;Zürich;275;https://www.homegate.ch/rent/3001749186;Gubelstrasse 28 8050;8.544126510620117;47.40858840942383
Schaffhauserstrasse 315;8050;Zürich;280;https://www.homegate.ch/rent/3001589049;Schaffhauserstrasse 315 8050;8.547237396240234;47.407135009765625
Brown-Boveri-Strasse 5;8050;Zürich;280;https://www.homegate.ch/rent/3001551678;Brown-Boveri-Strasse 5 8050;8.536216735839844;47.41453170776367
Hagenholzstrasse 111;8050;Zürich;210;https://www.homegate.ch/rent/3000898634;Hagenholzstrasse 111 8050;8.562726974487305;47.41579055786133
Binzmühlestr. 80;8050;Zürich;290;https://www.homegate.ch/rent/3001766589;Binzmühlestr. 80 8050;8.54212474822998;47.41426467895508
Schaffhauserstrasse 315;8050;Zürich;280;https://www.homegate.ch/rent/3001589051;Schaffhauserstrasse 315 8050;8.547237396240234;47.407135009765625
Gubelstrasse 28;8050;Zürich;275;https://www.homegate.ch/rent/3001687395;Gubelstrasse 28 8050;8.544126510620117;47.40858840942383
Siewerdtstrasse 25;8050;Zürich;327;https://www.homegate.ch/rent/3001635060;Siewerdtstrasse 25 8050;8.549593925476074;47.4123420715332
Binzmühlestrasse 170b;8050;Zürich;240;https://www.homegate.ch/rent/3001693036;Binzmühlestrasse 170b 8050;8.533771514892578;47.41387176513672
Franklinstrasse 27;8050;Zürich;365;https://www.homegate.ch/rent/3001721727;Franklinstrasse 27 8050;8.543588638305664;47.409610748291016
Leutschenbachstrasse 95;8050;Zürich;260;https://www.homegate.ch/rent/3001614736;Leutschenbachstrasse 95 8050;8.55895709991455;47.41786575317383
Baumackerstrasse 41;8050;Zürich;310;https://www.homegate.ch/rent/3001704250;Baumackerstrasse 41 8050;8.54301643371582;47.409210205078125
Leutschenbachstrasse 95;8050;Zürich;629.35;https://www.homegate.ch/rent/3001366534;Leutschenbachstrasse 95 8050;8.55895709991455;47.41786575317383
Regina-Kägi-Strasse 11;8050;Zürich;259;https://www.homegate.ch/rent/3000382852;Regina-Kägi-Strasse 11 8050;8.53421688079834;47.41184997558594
Thurgauerstrasse 105;8050;Zürich;225;https://www.homegate.ch/rent/3001694378;Thurgauerstrasse 105 8050; 8.55802663573098;47.42246580024308
Thurgauerstrasse 39;8050;Zürich;220;https://www.homegate.ch/rent/3001467947;Thurgauerstrasse 39 8050;8.5507173538208;47.41460418701172
Hagenholzstrasse 111;8050;Zürich;200;https://www.homegate.ch/rent/3000898635;Hagenholzstrasse 111 8050;8.562726974487305;47.41579055786133
Thurgauerstrasse 54;8050;Zürich;250;https://www.homegate.ch/rent/3000352601;Thurgauerstrasse 54 8050;8.552593231201172;47.41565704345703
Schaffhauserstrasse 315;8050;Zürich;280;https://www.homegate.ch/rent/3001589052;Schaffhauserstrasse 315 8050;8.547237396240234;47.407135009765625
Hagenholzstrasse 83;8050;Zürich;270;https://www.homegate.ch/rent/3001732595;Hagenholzstrasse 83 8050;8.559627532958984;47.414794921875
Binzmühlestrasse 170d;8050;Zürich;722.98;https://www.homegate.ch/rent/3001568459;Binzmühlestrasse 170d 8050;8.533040046691895;47.413700103759766
Brown-Boveri-Strasse 5;8050;Zürich;270;https://www.homegate.ch/rent/3001156282;Brown-Boveri-Strasse 5 8050;8.536216735839844;47.41453170776367
Leutschenbachstrasse 95;8050;Zürich;250;https://www.homegate.ch/rent/3001614977;Leutschenbachstrasse 95 8050;8.55895709991455;47.41786575317383
Binzmühlestrasse 11/13;8050;Zürich;295;https://www.homegate.ch/rent/3001369517;Binzmühlestrasse 11/13 8050;8.548973083496094;47.413818359375
Thurgauerstrasse 38;8050;Zürich;340;https://www.homegate.ch/rent/3001722086;Thurgauerstrasse 38 8050;8.551642417907715;47.413978576660156
Hofwiesenstrasse 350;8050;Zürich;420;https://www.homegate.ch/rent/3001361666;Hofwiesenstrasse 350 8050;8.542656898498535;47.41037368774414
Leutschenbachstrasse 95;8050;Zürich;405;https://www.homegate.ch/rent/3001501847;Leutschenbachstrasse 95 8050;8.55895709991455;47.41786575317383
Elias Canetti-Str. 2;8050;Zürich;395;https://www.homegate.ch/rent/3001766588;Elias Canetti-Str. 2 8050;8.541641235351562;47.41231918334961
Binzmühlestrasse 11/13;8050;Zürich;295;https://www.homegate.ch/rent/3001369552;Binzmühlestrasse 11/13 8050;8.548973083496094;47.413818359375
Binzmühlestrasse 11/13;8050;Zürich;295;https://www.homegate.ch/rent/3001369499;Binzmühlestrasse 11/13 8050;8.548973083496094;47.413818359375
Binzmühlestrasse 11/13;8050;Zürich;295;https://www.homegate.ch/rent/3001369522;Binzmühlestrasse 11/13 8050;8.548973083496094;47.413818359375
Thurgauerstrasse 54;8050;Zürich;280;https://www.homegate.ch/rent/3001537335;Thurgauerstrasse 54 8050;8.552593231201172;47.41565704345703
Binzmühlestrasse 11/13;8050;Zürich;295;https://www.homegate.ch/rent/3001369575;Binzmühlestrasse 11/13 8050;8.548973083496094;47.413818359375
Schärenmoosstrasse 99;8050;Zürich;280;https://www.homegate.ch/rent/3001321863;Schärenmoosstrasse 99 8050; 8.558870966414316;47.41896635245541
Hofwiesenstrasse 350;8050;Zürich;380;https://www.homegate.ch/rent/3001361665;Hofwiesenstrasse 350 8050;8.542656898498535;47.41037368774414
Elias Canetti-Str. 2;8050;Zürich;426;https://www.homegate.ch/rent/3001766595;Elias Canetti-Str. 2 8050;8.541641235351562;47.41231918334961
Binzmühlestrasse 11/13;8050;Zürich;295;https://www.homegate.ch/rent/3001369587;Binzmühlestrasse 11/13 8050;8.54851245880127;47.41377258300781
Alpenstrasse 3;8050;Zürich;250;https://www.homegate.ch/rent/105973617;Alpenstrasse 3 8050; 8.55724875292076;47.42278062251405
Thurgauerstrasse 80;8050;Zürich;290;https://www.homegate.ch/rent/3000880901;Thurgauerstrasse 80 8050;8.555371284484863;47.41831970214844
Binzmühlestrasse 11/13;8050;Zürich;295;https://www.homegate.ch/rent/3001369623;Binzmühlestrasse 11/13 8050;8.54851245880127;47.41377258300781
Alpenstrasse 3;8050;Zürich;250;https://www.homegate.ch/rent/105973618;Alpenstrasse 3 8050; 8.55724875292076;47.42278062251405
Thurgauerstrasse 38;8050;Zürich;340;https://www.homegate.ch/rent/3001280781;Thurgauerstrasse 38 8050;8.551642417907715;47.413978576660156
Thurgauerstrasse 80;8050;Zürich;290;https://www.homegate.ch/rent/3000652955;Thurgauerstrasse 80 8050;8.555371284484863;47.41831970214844
Leutschenbachstrasse 50;8050;Zürich;Price on request;https://www.homegate.ch/rent/3001746975;Leutschenbachstrasse 50 8050;8.55567741394043;47.416500091552734
Hagenholzstrasse 56;8050;Zürich;Price on request;https://www.homegate.ch/rent/3000829412;Hagenholzstrasse 56 8050;8.554973602294922;47.413604736328125
Brown-Boveri-Strasse 5;8050;Zürich;Price on request;https://www.homegate.ch/rent/3001642276;Brown-Boveri-Strasse 5 8050;8.536216735839844;47.41453170776367
Brown-Boveri-Strasse 5;8050;Zürich;Price on request;https://www.homegate.ch/rent/3001642274;Brown-Boveri-Strasse 5 8050;8.536216735839844;47.41453170776367
Luegislandstrasse 261;8051;Zürich;100;https://www.homegate.ch/rent/3000811096;Luegislandstrasse 261 8051;8.574263572692871;47.409271240234375
Zürichstrasse 137;8051;Zürich;220;https://www.homegate.ch/rent/3001224586;Zürichstrasse 137 8051; 8.597851704489177;47.39620060537346
Schaffhauserstrasse 550;8052;Zürich;210;https://www.homegate.ch/rent/3000952763;Schaffhauserstrasse 550 8052;8.55335807800293;47.42411422729492
Schärenmoosstrasse 77;8052;Zürich;290;https://www.homegate.ch/rent/3001503414;Schärenmoosstrasse 77 8052;8.556852340698242;47.419429779052734
Schärenmoosstrasse 99;8052;Zürich;280;https://www.homegate.ch/rent/3001321860;Schärenmoosstrasse 99 8052;8.558406829833984;47.418827056884766
Schärenmoosstrasse 77;8052;Zürich;Price on request;https://www.homegate.ch/rent/3001503421;Schärenmoosstrasse 77 8052;8.556852340698242;47.419429779052734
Friesenbergstrasse 75;8055;Zürich;280;https://www.homegate.ch/rent/3001651855;Friesenbergstrasse 75 8055;8.51121997833252;47.36726760864258
Friesenbergstrasse 75;8055;Zürich;280;https://www.homegate.ch/rent/3001755177;Friesenbergstrasse 75 8055;8.51121997833252;47.36726760864258
Friesenbergstrasse 75;8055;Zürich;280;https://www.homegate.ch/rent/3001755176;Friesenbergstrasse 75 8055;8.51121997833252;47.36726760864258
Künzlistrasse 16;8057;Zürich;199.34;https://www.homegate.ch/rent/3001751387;Künzlistrasse 16 8057;8.53411865234375;47.405540466308594
Schaffhauserstrasse 239;8057;Zürich;319.06;https://www.homegate.ch/rent/3000881406;Schaffhauserstrasse 239 8057;8.547067642211914;47.403236389160156
Hotelstrasse 1;8057;Zürich;499.53;https://www.homegate.ch/rent/3001261747;Hotelstrasse 1 8057; 8.565517089706772;47.45083779120234
Berninastrasse 43/47a;8057;Zürich;315;https://www.homegate.ch/rent/3001766598;Berninastrasse 43/47a 8057;8.545989036560059;47.40379333496094
Hotelstrasse 1;8057;Zürich;1257.02;https://www.homegate.ch/rent/3001352833;Hotelstrasse 1 8057; 8.565517089706772;47.45083779120234
Grubenstrasse 6;8045;Zürich;Price on request;https://www.homegate.ch/rent/3001483743;Grubenstrasse 6 8045;8.517247200012207;47.362178802490234
Maneggstrasse 33/37;8041;Zürich;300;https://www.homegate.ch/rent/3001503423;Maneggstrasse 33/37 8041;8.520710945129395;47.34132385253906
Maneggstrasse 33/37;8041;Zürich;Price on request;https://www.homegate.ch/rent/3001758866;Maneggstrasse 33/37 8041;8.520710945129395;47.34132385253906
